{
"type": "FeatureCollection",
"name": "aglomerados_rurais",
"xy_coordinate_resolution": 1e-05,
"features": [
{ "type": "Feature", "properties": { "titulo": "Águas de Miranda", "subtitulo": "Vila · Urbana", "municipio": "Bonito" }, "geometry": { "type": "Polygon", "coordinates": [ [ [ -56.09299, -20.75988 ], [ -56.09682, -20.76177 ], [ -56.09464, -20.76539 ], [ -56.09317, -20.76443 ], [ -56.09222, -20.76384 ], [ -56.09172, -20.76362 ], [ -56.09166, -20.76358 ], [ -56.09224, -20.76228 ], [ -56.09276, -20.76031 ], [ -56.09279, -20.75984 ], [ -56.09299, -20.75988 ] ] ] } },
{ "type": "Feature", "properties": { "titulo": "Povoado Indubrasil", "subtitulo": "Povoado · Rural", "municipio": "Campo Grande" }, "geometry": { "type": "Polygon", "coordinates": [ [ [ -54.76359, -20.47813 ], [ -54.75757, -20.47559 ], [ -54.76117, -20.47559 ], [ -54.76138, -20.47233 ], [ -54.76016, -20.46974 ], [ -54.76514, -20.46859 ], [ -54.76738, -20.47588 ], [ -54.76978, -20.47876 ], [ -54.76984, -20.48149 ], [ -54.76878, -20.48052 ], [ -54.76359, -20.47813 ] ] ] } },
{ "type": "Feature", "properties": { "titulo": "Fundação Bradesco", "subtitulo": "Núcleo · Rural", "municipio": "Miranda" }, "geometry": { "type": "Polygon", "coordinates": [ [ [ -56.78568, -20.08239 ], [ -56.78506, -20.08584 ], [ -56.78503, -20.08597 ], [ -56.78494, -20.08623 ], [ -56.78475, -20.08659 ], [ -56.7845, -20.08692 ], [ -56.78419, -20.08721 ], [ -56.78397, -20.08737 ], [ -56.78372, -20.08752 ], [ -56.78346, -20.08763 ], [ -56.78319, -20.08772 ], [ -56.78291, -20.08778 ], [ -56.78263, -20.08782 ], [ -56.7822, -20.08781 ], [ -56.78178, -20.08774 ], [ -56.7815, -20.08766 ], [ -56.78124, -20.08755 ], [ -56.78099, -20.08742 ], [ -56.78076, -20.08726 ], [ -56.78055, -20.08708 ], [ -56.78036, -20.08688 ], [ -56.78011, -20.08655 ], [ -56.77993, -20.08618 ], [ -56.77981, -20.08579 ], [ -56.77977, -20.08552 ], [ -56.77976, -20.08525 ], [ -56.77978, -20.08498 ], [ -56.78043, -20.08154 ], [ -56.78568, -20.08239 ] ] ] } },
{ "type": "Feature", "properties": { "titulo": "Imbiruçu", "subtitulo": "Aldeia Indígena · Rural", "municipio": "Aquidauana" }, "geometry": { "type": "Polygon", "coordinates": [ [ [ -56.10047, -20.27836 ], [ -56.10019, -20.28166 ], [ -56.09363, -20.28165 ], [ -56.09305, -20.28078 ], [ -56.09215, -20.28118 ], [ -56.09252, -20.28192 ], [ -56.09186, -20.28226 ], [ -56.09055, -20.28048 ], [ -56.09266, -20.27948 ], [ -56.09213, -20.27902 ], [ -56.09555, -20.27766 ], [ -56.09571, -20.27851 ], [ -56.09815, -20.27821 ], [ -56.10047, -20.27836 ] ] ] } },
{ "type": "Feature", "properties": { "titulo": "Bananal", "subtitulo": "Aldeia Indígena · Rural", "municipio": "Aquidauana" }, "geometry": { "type": "Polygon", "coordinates": [ [ [ -56.06835, -20.25827 ], [ -56.0616, -20.26184 ], [ -56.06046, -20.25972 ], [ -56.06582, -20.2574 ], [ -56.06705, -20.25519 ], [ -56.06658, -20.2535 ], [ -56.06179, -20.25428 ], [ -56.05812, -20.24979 ], [ -56.06469, -20.24695 ], [ -56.06879, -20.24959 ], [ -56.07441, -20.25368 ], [ -56.07523, -20.25698 ], [ -56.06835, -20.25827 ] ] ] } },
{ "type": "Feature", "properties": { "titulo": "Porto Esperança", "subtitulo": "Vila · Urbana", "municipio": "Corumbá" }, "geometry": { "type": "Polygon", "coordinates": [ [ [ -57.4575, -19.61066 ], [ -57.45863, -19.61106 ], [ -57.45926, -19.61148 ], [ -57.45909, -19.61204 ], [ -57.45882, -19.61324 ], [ -57.45453, -19.6138 ], [ -57.45383, -19.61342 ], [ -57.45498, -19.61112 ], [ -57.45303, -19.61041 ], [ -57.44864, -19.60929 ], [ -57.44613, -19.60871 ], [ -57.44477, -19.60821 ], [ -57.44383, -19.60767 ], [ -57.44285, -19.60704 ], [ -57.44231, -19.6066 ], [ -57.44376, -19.60694 ], [ -57.44495, -19.60729 ], [ -57.44552, -19.60764 ], [ -57.44654, -19.60808 ], [ -57.44774, -19.60843 ], [ -57.44852, -19.60855 ], [ -57.44909, -19.60853 ], [ -57.44981, -19.60875 ], [ -57.45543, -19.60996 ], [ -57.4575, -19.61066 ] ] ] } },
{ "type": "Feature", "properties": { "titulo": "Cipolândia", "subtitulo": "Vila · Urbana", "municipio": "Aquidauana" }, "geometry": { "type": "Polygon", "coordinates": [ [ [ -55.39341, -20.13612 ], [ -55.38642, -20.13516 ], [ -55.38098, -20.13065 ], [ -55.3865, -20.12324 ], [ -55.38929, -20.12292 ], [ -55.38999, -20.12329 ], [ -55.39046, -20.12367 ], [ -55.39139, -20.12413 ], [ -55.39235, -20.12435 ], [ -55.39359, -20.12438 ], [ -55.39535, -20.12434 ], [ -55.39648, -20.12471 ], [ -55.39728, -20.12515 ], [ -55.39775, -20.12546 ], [ -55.39925, -20.12725 ], [ -55.39959, -20.12835 ], [ -55.39962, -20.12882 ], [ -55.39953, -20.12919 ], [ -55.39875, -20.1308 ], [ -55.39737, -20.13156 ], [ -55.39674, -20.13178 ], [ -55.39598, -20.1321 ], [ -55.39535, -20.13229 ], [ -55.39482, -20.13254 ], [ -55.39482, -20.13282 ], [ -55.39505, -20.13298 ], [ -55.39542, -20.13304 ], [ -55.39688, -20.13278 ], [ -55.39741, -20.13297 ], [ -55.39738, -20.13335 ], [ -55.39708, -20.13401 ], [ -55.39679, -20.13445 ], [ -55.39606, -20.13496 ], [ -55.39533, -20.13537 ], [ -55.39341, -20.13612 ] ] ] } },
{ "type": "Feature", "properties": { "titulo": "Palmeiras", "subtitulo": "Vila · Urbana", "municipio": "Dois Irmãos do Buriti" }, "geometry": { "type": "MultiPolygon", "coordinates": [ [ [ [ -55.4282, -20.44876 ], [ -55.42866, -20.44933 ], [ -55.42879, -20.44976 ], [ -55.42896, -20.45009 ], [ -55.42898, -20.45041 ], [ -55.42894, -20.45086 ], [ -55.42894, -20.45131 ], [ -55.42891, -20.45173 ], [ -55.42876, -20.45227 ], [ -55.42871, -20.45291 ], [ -55.42888, -20.45411 ], [ -55.42898, -20.45512 ], [ -55.42924, -20.45555 ], [ -55.42957, -20.45579 ], [ -55.43005, -20.45602 ], [ -55.43065, -20.45632 ], [ -55.43131, -20.45744 ], [ -55.43182, -20.45806 ], [ -55.43159, -20.45834 ], [ -55.42946, -20.45997 ], [ -55.42762, -20.46134 ], [ -55.42447, -20.45664 ], [ -55.4243, -20.45616 ], [ -55.42159, -20.45785 ], [ -55.42101, -20.45706 ], [ -55.42234, -20.45642 ], [ -55.42215, -20.45616 ], [ -55.42019, -20.45538 ], [ -55.42062, -20.45479 ], [ -55.42235, -20.45518 ], [ -55.42262, -20.45229 ], [ -55.42274, -20.45152 ], [ -55.42292, -20.45157 ], [ -55.42319, -20.45154 ], [ -55.42374, -20.45136 ], [ -55.42448, -20.45087 ], [ -55.42538, -20.44996 ], [ -55.42657, -20.4485 ], [ -55.42688, -20.44834 ], [ -55.4274, -20.44827 ], [ -55.4278, -20.44843 ], [ -55.4282, -20.44876 ] ] ], [ [ [ -55.44232, -20.45491 ], [ -55.44428, -20.45451 ], [ -55.44449, -20.45531 ], [ -55.44456, -20.45547 ], [ -55.44348, -20.45569 ], [ -55.44201, -20.45616 ], [ -55.43989, -20.45764 ], [ -55.43953, -20.4578 ], [ -55.43784, -20.45831 ], [ -55.43637, -20.45922 ], [ -55.43591, -20.45943 ], [ -55.43488, -20.45953 ], [ -55.43446, -20.4595 ], [ -55.43381, -20.45922 ], [ -55.4332, -20.45883 ], [ -55.4326, -20.45839 ], [ -55.43236, -20.4581 ], [ -55.43105, -20.455 ], [ -55.43095, -20.45449 ], [ -55.43104, -20.45348 ], [ -55.431, -20.453 ], [ -55.43055, -20.45103 ], [ -55.43024, -20.45033 ], [ -55.42892, -20.44846 ], [ -55.42847, -20.44797 ], [ -55.4279, -20.44761 ], [ -55.42701, -20.4476 ], [ -55.4266, -20.44767 ], [ -55.42627, -20.44788 ], [ -55.42415, -20.45015 ], [ -55.42375, -20.4505 ], [ -55.42328, -20.45066 ], [ -55.4226, -20.45063 ], [ -55.4219, -20.4503 ], [ -55.4214, -20.4498 ], [ -55.42107, -20.44928 ], [ -55.42026, -20.44762 ], [ -55.41972, -20.44687 ], [ -55.41969, -20.44685 ], [ -55.42023, -20.44597 ], [ -55.42085, -20.44651 ], [ -55.42161, -20.44689 ], [ -55.42236, -20.44705 ], [ -55.42295, -20.44709 ], [ -55.42341, -20.44697 ], [ -55.4239, -20.44672 ], [ -55.42432, -20.44638 ], [ -55.42475, -20.44599 ], [ -55.42542, -20.4457 ], [ -55.42607, -20.44551 ], [ -55.42661, -20.44545 ], [ -55.42743, -20.44549 ], [ -55.42793, -20.44564 ], [ -55.42861, -20.44615 ], [ -55.4287, -20.44627 ], [ -55.42914, -20.44531 ], [ -55.42928, -20.44508 ], [ -55.42944, -20.44491 ], [ -55.42962, -20.44475 ], [ -55.42981, -20.44465 ], [ -55.43004, -20.44458 ], [ -55.4303, -20.44453 ], [ -55.43083, -20.44451 ], [ -55.43515, -20.44482 ], [ -55.43635, -20.44501 ], [ -55.43675, -20.44503 ], [ -55.43588, -20.4498 ], [ -55.435, -20.44967 ], [ -55.43478, -20.45082 ], [ -55.43667, -20.4511 ], [ -55.43703, -20.45245 ], [ -55.43975, -20.45653 ], [ -55.44155, -20.45535 ], [ -55.44232, -20.45491 ] ] ] ] } },
{ "type": "Feature", "properties": { "titulo": "Aldeia Indígena Cachoeirinha", "subtitulo": "Aldeia Indígena · Rural", "municipio": "Miranda" }, "geometry": { "type": "Polygon", "coordinates": [ [ [ -56.27083, -20.18708 ], [ -56.28545, -20.18774 ], [ -56.28534, -20.18995 ], [ -56.2866, -20.19007 ], [ -56.2864, -20.19258 ], [ -56.28252, -20.19226 ], [ -56.28207, -20.19537 ], [ -56.28197, -20.19535 ], [ -56.28069, -20.19525 ], [ -56.27803, -20.19528 ], [ -56.27632, -20.19536 ], [ -56.27631, -20.19307 ], [ -56.27421, -20.19291 ], [ -56.27352, -20.18957 ], [ -56.27081, -20.18924 ], [ -56.27083, -20.18708 ] ] ] } },
{ "type": "Feature", "properties": { "titulo": "Taunay", "subtitulo": "Vila · Urbana", "municipio": "Aquidauana" }, "geometry": { "type": "Polygon", "coordinates": [ [ [ -56.07906, -20.28823 ], [ -56.07906, -20.2888 ], [ -56.07888, -20.29006 ], [ -56.07842, -20.29191 ], [ -56.07812, -20.293 ], [ -56.07361, -20.29191 ], [ -56.0724, -20.29643 ], [ -56.06835, -20.2962 ], [ -56.06813, -20.29688 ], [ -56.06528, -20.29627 ], [ -56.0658, -20.29388 ], [ -56.06391, -20.29343 ], [ -56.06564, -20.28567 ], [ -56.0664, -20.28545 ], [ -56.06698, -20.28537 ], [ -56.06754, -20.28539 ], [ -56.06804, -20.28546 ], [ -56.07906, -20.28823 ] ] ] } },
{ "type": "Feature", "properties": { "titulo": "Fala Verdade", "subtitulo": "Povoado · Rural", "municipio": "Corguinho" }, "geometry": { "type": "Polygon", "coordinates": [ [ [ -54.75734, -19.6408 ], [ -54.75718, -19.64142 ], [ -54.75742, -19.64148 ], [ -54.75845, -19.64276 ], [ -54.75758, -19.64341 ], [ -54.75635, -19.64277 ], [ -54.75573, -19.6425 ], [ -54.7553, -19.64151 ], [ -54.75475, -19.64169 ], [ -54.75417, -19.64027 ], [ -54.75549, -19.63988 ], [ -54.75519, -19.63898 ], [ -54.75653, -19.63864 ], [ -54.75734, -19.6408 ] ] ] } },
{ "type": "Feature", "properties": { "titulo": "Piraputanga", "subtitulo": "Vila · Urbana", "municipio": "Aquidauana" }, "geometry": { "type": "Polygon", "coordinates": [ [ [ -55.54169, -20.47988 ], [ -55.53621, -20.48204 ], [ -55.53448, -20.47792 ], [ -55.53275, -20.47427 ], [ -55.53826, -20.47197 ], [ -55.54169, -20.47988 ] ] ] } },
{ "type": "Feature", "properties": { "titulo": "Tabôco", "subtitulo": "Povoado · Rural", "municipio": "Corguinho" }, "geometry": { "type": "Polygon", "coordinates": [ [ [ -55.21087, -19.74145 ], [ -55.21, -19.74155 ], [ -55.20975, -19.7416 ], [ -55.20996, -19.74248 ], [ -55.20923, -19.74262 ], [ -55.20904, -19.74175 ], [ -55.20849, -19.74186 ], [ -55.20866, -19.7428 ], [ -55.20787, -19.74293 ], [ -55.20766, -19.74204 ], [ -55.20164, -19.74331 ], [ -55.20125, -19.74139 ], [ -55.21027, -19.73956 ], [ -55.21067, -19.74081 ], [ -55.21346, -19.74026 ], [ -55.21379, -19.74061 ], [ -55.21395, -19.74081 ], [ -55.21087, -19.74145 ] ] ] } },
{ "type": "Feature", "properties": { "titulo": "Baianópolis", "subtitulo": "Vila · Urbana", "municipio": "Corguinho" }, "geometry": { "type": "Polygon", "coordinates": [ [ [ -54.73551, -19.72409 ], [ -54.7354, -19.72653 ], [ -54.73587, -19.72655 ], [ -54.73583, -19.72607 ], [ -54.73652, -19.72604 ], [ -54.73656, -19.72684 ], [ -54.73751, -19.72668 ], [ -54.73784, -19.72713 ], [ -54.7359, -19.72763 ], [ -54.73574, -19.72692 ], [ -54.73501, -19.72703 ], [ -54.73508, -19.72783 ], [ -54.73381, -19.72816 ], [ -54.73366, -19.7261 ], [ -54.73455, -19.72607 ], [ -54.7346, -19.72442 ], [ -54.73551, -19.72409 ] ] ] } },
{ "type": "Feature", "properties": { "titulo": "Camisão", "subtitulo": "Vila · Urbana", "municipio": "Aquidauana" }, "geometry": { "type": "Polygon", "coordinates": [ [ [ -55.63612, -20.48585 ], [ -55.6355, -20.48641 ], [ -55.63487, -20.48712 ], [ -55.63366, -20.48837 ], [ -55.63311, -20.48875 ], [ -55.63245, -20.48912 ], [ -55.63103, -20.48765 ], [ -55.63202, -20.48667 ], [ -55.62792, -20.48229 ], [ -55.6315, -20.47946 ], [ -55.63553, -20.48311 ], [ -55.63596, -20.48266 ], [ -55.6378, -20.48446 ], [ -55.63736, -20.48487 ], [ -55.63612, -20.48585 ] ] ] } },
{ "type": "Feature", "properties": { "titulo": "Povoado São Francisco", "subtitulo": "Povoado · Rural", "municipio": "Rio Negro" }, "geometry": { "type": "Polygon", "coordinates": [ [ [ -55.00676, -19.48994 ], [ -55.00818, -19.48895 ], [ -55.00892, -19.48984 ], [ -55.00991, -19.48922 ], [ -55.01079, -19.49038 ], [ -55.00693, -19.49282 ], [ -55.0059, -19.49147 ], [ -55.00552, -19.49082 ], [ -55.00531, -19.49036 ], [ -55.00521, -19.48976 ], [ -55.00529, -19.48918 ], [ -55.00557, -19.48805 ], [ -55.00676, -19.48994 ] ] ] } },
{ "type": "Feature", "properties": { "titulo": "Cogonha", "subtitulo": "Vila · Urbana", "municipio": "Bandeirantes" }, "geometry": { "type": "Polygon", "coordinates": [ [ [ -54.35024, -19.67878 ], [ -54.35399, -19.67891 ], [ -54.35446, -19.68148 ], [ -54.35026, -19.68144 ], [ -54.35024, -19.67878 ] ] ] } },
{ "type": "Feature", "properties": { "titulo": "Bom Fim", "subtitulo": "Vila · Urbana", "municipio": "Jaraguari" }, "geometry": { "type": "Polygon", "coordinates": [ [ [ -54.46066, -20.05684 ], [ -54.4615, -20.05768 ], [ -54.45477, -20.06368 ], [ -54.45375, -20.06262 ], [ -54.45167, -20.06429 ], [ -54.45066, -20.06323 ], [ -54.4536, -20.06071 ], [ -54.45468, -20.06184 ], [ -54.46066, -20.05684 ] ] ] } },
{ "type": "Feature", "properties": { "titulo": "Nova Esperança", "subtitulo": "Vila · Urbana", "municipio": "Rio Negro" }, "geometry": { "type": "Polygon", "coordinates": [ [ [ -54.96674, -19.29274 ], [ -54.96407, -19.29553 ], [ -54.96115, -19.29341 ], [ -54.96263, -19.29216 ], [ -54.96152, -19.29118 ], [ -54.96689, -19.28797 ], [ -54.96735, -19.28839 ], [ -54.96648, -19.28967 ], [ -54.96541, -19.2906 ], [ -54.96524, -19.29107 ], [ -54.96674, -19.29274 ] ] ] } },
{ "type": "Feature", "properties": { "titulo": "Morrinho", "subtitulo": "Aldeia Indígena · Rural", "municipio": "Aquidauana" }, "geometry": { "type": "Polygon", "coordinates": [ [ [ -56.06964, -20.26283 ], [ -56.07468, -20.26134 ], [ -56.07635, -20.26765 ], [ -56.07662, -20.26935 ], [ -56.07697, -20.27084 ], [ -56.07844, -20.27064 ], [ -56.07943, -20.27516 ], [ -56.07564, -20.27572 ], [ -56.0753, -20.27504 ], [ -56.07379, -20.27548 ], [ -56.06964, -20.26283 ] ] ] } },
{ "type": "Feature", "properties": { "titulo": "Rochedinho", "subtitulo": "Povoado · Rural", "municipio": "Jaguari" }, "geometry": { "type": "Polygon", "coordinates": [ [ [ -54.58915, -20.22698 ], [ -54.58753, -20.22368 ], [ -54.58893, -20.22387 ], [ -54.59021, -20.22162 ], [ -54.59086, -20.22186 ], [ -54.59069, -20.22234 ], [ -54.59071, -20.22276 ], [ -54.59079, -20.22309 ], [ -54.59082, -20.22346 ], [ -54.59078, -20.22397 ], [ -54.59067, -20.22434 ], [ -54.5904, -20.22491 ], [ -54.58925, -20.22665 ], [ -54.58915, -20.22698 ] ] ] } },
{ "type": "Feature", "properties": { "titulo": "Quebra Côco", "subtitulo": "Vila · Urbana", "municipio": "Sidrolândia" }, "geometry": { "type": "Polygon", "coordinates": [ [ [ -55.11935, -20.74297 ], [ -55.11871, -20.74584 ], [ -55.10478, -20.74202 ], [ -55.10554, -20.7395 ], [ -55.11935, -20.74297 ] ] ] } },
{ "type": "Feature", "properties": { "titulo": "Morraria do Sul", "subtitulo": "Vila · Urbana", "municipio": "Bodoquena" }, "geometry": { "type": "Polygon", "coordinates": [ [ [ -56.89524, -20.53745 ], [ -56.89578, -20.53254 ], [ -56.89581, -20.53247 ], [ -56.89784, -20.53258 ], [ -56.89783, -20.5335 ], [ -56.89892, -20.5336 ], [ -56.89896, -20.53451 ], [ -56.90018, -20.5346 ], [ -56.90005, -20.53599 ], [ -56.90114, -20.53641 ], [ -56.90052, -20.53805 ], [ -56.89524, -20.53745 ] ] ] } }
]
}
