{
"type": "FeatureCollection",
"name": "bacias_especiais",
"crs": { "type": "name", "properties": { "name": "urn:ogc:def:crs:OGC:1.3:CRS84" } },
"features": [
{ "type": "Feature", "properties": { "nome_bacia": null, "area_ha": null }, "geometry": { "type": "MultiPolygon", "coordinates": [ [ [ [ -56.25415303799997, -21.395156656999973 ], [ -56.248555667999938, -21.404397151999945 ], [ -56.251077460999966, -21.406781386999967 ], [ -56.251181360999965, -21.410058714999934 ], [ -56.256597394999972, -21.412794800999961 ], [ -56.258022156999971, -21.417433854999956 ], [ -56.259709286999964, -21.417893275999973 ], [ -56.259686508999948, -21.422412980999979 ], [ -56.264281614999959, -21.420512457999962 ], [ -56.269917275999944, -21.427768674999982 ], [ -56.265803568999956, -21.429897775999962 ], [ -56.265305607999949, -21.432946362999928 ], [ -56.262643800999967, -21.434290536999981 ], [ -56.26360184899994, -21.43576378299997 ], [ -56.259609588999979, -21.437667164999937 ], [ -56.258989461999931, -21.440941278999958 ], [ -56.25910119699995, -21.442749600999946 ], [ -56.261268511999958, -21.443776251999964 ], [ -56.261715426999956, -21.450896823999983 ], [ -56.258053746999963, -21.45890335799993 ], [ -56.262141897999982, -21.462085356999978 ], [ -56.262852907999957, -21.46468729399993 ], [ -56.259088798999983, -21.469077510999966 ], [ -56.259198018999939, -21.47133777199997 ], [ -56.261478994999948, -21.473833728999978 ], [ -56.260131150999939, -21.477782658999956 ], [ -56.263608146999957, -21.482543877999944 ], [ -56.259590590999949, -21.489192740999954 ], [ -56.261980781999966, -21.494062106999934 ], [ -56.260998421999943, -21.497334599999931 ], [ -56.262912441999958, -21.500845756999979 ], [ -56.269543986999963, -21.502682931999971 ], [ -56.272180010999932, -21.506762255999945 ], [ -56.274836911999955, -21.506660655999951 ], [ -56.277954125999941, -21.511194160999935 ], [ -56.280124804999957, -21.511768419999953 ], [ -56.278790455999967, -21.513005593999935 ], [ -56.278272097999945, -21.520121914999947 ], [ -56.282364590999975, -21.522851512999978 ], [ -56.281386914999985, -21.52522023399996 ], [ -56.284016461999954, -21.530768143999978 ], [ -56.282678635999957, -21.532683370999962 ], [ -56.283746563999955, -21.536529903999963 ], [ -56.278049773999953, -21.540686080999933 ], [ -56.27792012599997, -21.542493330999946 ], [ -56.279965542999946, -21.544084122999948 ], [ -56.28041574699995, -21.550752651999971 ], [ -56.284752216999948, -21.553144232999955 ], [ -56.282677176999982, -21.557542136999928 ], [ -56.289525155999968, -21.565142182999978 ], [ -56.288301180999952, -21.568413782999983 ], [ -56.285884612999951, -21.568516374999945 ], [ -56.282474720999971, -21.57415145899995 ], [ -56.27993620899997, -21.57447929999995 ], [ -56.280284698999935, -21.57730566999993 ], [ -56.282569308999939, -21.579462576999958 ], [ -56.279779173999941, -21.581823220999979 ], [ -56.281200890999969, -21.587479087999952 ], [ -56.274633198999936, -21.596264193999957 ], [ -56.27449330099995, -21.600105267999936 ], [ -56.272550425999952, -21.602017740999941 ], [ -56.273387172999946, -21.603829193999957 ], [ -56.27169560599998, -21.603821797999956 ], [ -56.272775803999934, -21.605295526999953 ], [ -56.271915876999969, -21.608116616999951 ], [ -56.266679824999983, -21.616116210999962 ], [ -56.268973338999956, -21.616578254999979 ], [ -56.274118482999938, -21.62677019299997 ], [ -56.279669497999976, -21.628376042999946 ], [ -56.284094489999973, -21.637773596999978 ], [ -56.290484308999964, -21.640964865999933 ], [ -56.28877902399995, -21.643669491999958 ], [ -56.289955056999986, -21.650341038999954 ], [ -56.288140795999936, -21.650559360999978 ], [ -56.286785217999977, -21.655864211999983 ], [ -56.294268236999983, -21.658155918999967 ], [ -56.301289559999987, -21.65592586799994 ], [ -56.305255460999945, -21.660688078999954 ], [ -56.308522126999947, -21.660023904999946 ], [ -56.310588292999967, -21.657659594999927 ], [ -56.316024666999965, -21.658246954999981 ], [ -56.31651663599996, -21.65644118299997 ], [ -56.319423407999977, -21.655210201999978 ], [ -56.32425916699998, -21.655003859999965 ], [ -56.325969187999931, -21.651169117999927 ], [ -56.329729141999962, -21.648359470999935 ], [ -56.330346389999931, -21.645537097999977 ], [ -56.33458434299996, -21.64385925199997 ], [ -56.337870601999953, -21.638787527999966 ], [ -56.342942508999954, -21.639711788999932 ], [ -56.346212618999971, -21.638142739999978 ], [ -56.348289012999942, -21.633292120999954 ], [ -56.351314330999969, -21.632400049999944 ], [ -56.351927053999987, -21.63048146899996 ], [ -56.360654993999958, -21.62441354799995 ], [ -56.364631929999973, -21.62691465599994 ], [ -56.364259961999949, -21.629060071999959 ], [ -56.365829102999953, -21.629518018999931 ], [ -56.366421917999958, -21.632119298999953 ], [ -56.388954905999981, -21.647909832999972 ], [ -56.389423127999976, -21.651527416999954 ], [ -56.391720245999977, -21.651422912999976 ], [ -56.392212201999939, -21.64939080399995 ], [ -56.398752962999936, -21.646024602999944 ], [ -56.400098772999968, -21.642074800999978 ], [ -56.404218541999967, -21.639490593999938 ], [ -56.407385666999971, -21.63340016799998 ], [ -56.412924376999968, -21.638504731999944 ], [ -56.418496950999952, -21.635247466999942 ], [ -56.422243727999955, -21.635147599999982 ], [ -56.424644356999977, -21.639336702999969 ], [ -56.42790827999994, -21.639121879999948 ], [ -56.432242804999987, -21.643317747999959 ], [ -56.437449471999969, -21.640849350999929 ], [ -56.443251926999949, -21.640530094999974 ], [ -56.44256205399995, -21.631375000999981 ], [ -56.445590245999938, -21.629577291999965 ], [ -56.447054119999962, -21.625966267999956 ], [ -56.451391386999944, -21.629483603999972 ], [ -56.459842375999983, -21.631771076999939 ], [ -56.460562114999959, -21.63324245299998 ], [ -56.463232128999948, -21.630200084999956 ], [ -56.468552399999965, -21.629426191999983 ], [ -56.471102629999962, -21.62604450799995 ], [ -56.47764179099994, -21.622336333999954 ], [ -56.480639500999985, -21.628899497999953 ], [ -56.483896311999956, -21.630604550999976 ], [ -56.493093612999985, -21.627016932999936 ], [ -56.509047640999938, -21.626499912999975 ], [ -56.511232412999959, -21.623681413999975 ], [ -56.511486120999962, -21.620066230999953 ], [ -56.516927189999933, -21.619178198999975 ], [ -56.519358098999987, -21.614891249999971 ], [ -56.520470355999976, -21.607436716999928 ], [ -56.522893917999966, -21.605296796999937 ], [ -56.523429748999945, -21.589252565999971 ], [ -56.521384189999935, -21.586760776999938 ], [ -56.520915447999982, -21.582352709999952 ], [ -56.527569573999983, -21.579433602999927 ], [ -56.526986523999938, -21.57299126199996 ], [ -56.531111940999949, -21.567353002999937 ], [ -56.52486175699994, -21.557730382999978 ], [ -56.525598105999961, -21.554116516999954 ], [ -56.528264929999978, -21.55118618399996 ], [ -56.533094551999966, -21.551764907999939 ], [ -56.536362381999936, -21.54974005899993 ], [ -56.538412225999934, -21.550875552999969 ], [ -56.538901413999952, -21.548956098999952 ], [ -56.549902520999979, -21.545822151999971 ], [ -56.550873245999981, -21.544355699999983 ], [ -56.555100651999965, -21.544367031999968 ], [ -56.558229279999978, -21.548217424999962 ], [ -56.564264818999959, -21.549476278999975 ], [ -56.567534948999935, -21.546433715999967 ], [ -56.573932233999983, -21.547919254999954 ], [ -56.574908986999958, -21.544305763999944 ], [ -56.577451978999932, -21.542052374999969 ], [ -56.579019685999981, -21.542847343999938 ], [ -56.578540831999987, -21.541377061999981 ], [ -56.580113004999987, -21.54070295799994 ], [ -56.581797456999936, -21.542967267999927 ], [ -56.586754799999937, -21.541058579999969 ], [ -56.597494229999938, -21.544700836999937 ], [ -56.603174048999961, -21.543584407999958 ], [ -56.604269843999987, -21.54031004999996 ], [ -56.608979946999966, -21.540434095999956 ], [ -56.612476218999973, -21.542815275999942 ], [ -56.614653851999947, -21.541464406999978 ], [ -56.617183153999974, -21.544182286999956 ], [ -56.621890471999961, -21.545436005999932 ], [ -56.625622136999937, -21.550303404999966 ], [ -56.628043459999958, -21.54816167499996 ], [ -56.633959814999969, -21.548965774999942 ], [ -56.638312037999981, -21.547393256999953 ], [ -56.639155310999968, -21.548299253999971 ], [ -56.637578509999969, -21.551007667999954 ], [ -56.639264576999949, -21.552932374999955 ], [ -56.637572053999975, -21.553606775999981 ], [ -56.640213523999932, -21.560053266999944 ], [ -56.643354150999983, -21.560060015999966 ], [ -56.644548663999956, -21.565599616999975 ], [ -56.647328611999967, -21.564927453999928 ], [ -56.648532029999956, -21.566851044999964 ], [ -56.656146382999964, -21.565171979999946 ], [ -56.65916243199996, -21.566873127999941 ], [ -56.659399125999983, -21.569020534999936 ], [ -56.663993416999972, -21.567334911999978 ], [ -56.667389322999952, -21.561465857999963 ], [ -56.669439352999973, -21.563051727999948 ], [ -56.670771435999939, -21.561585509999929 ], [ -56.675237842999934, -21.56295019199996 ], [ -56.678623235999964, -21.561600834999979 ], [ -56.681046952999964, -21.557989479999947 ], [ -56.68249246299996, -21.559913294999944 ], [ -56.685634562999951, -21.559241178999969 ], [ -56.688177344999986, -21.55642095099995 ], [ -56.688304346999985, -21.553483246999974 ], [ -56.692775911999945, -21.552361498999971 ], [ -56.693749526999966, -21.548860435999927 ], [ -56.702446411999972, -21.548763017999931 ], [ -56.703054632999965, -21.546730104999938 ], [ -56.708609434999971, -21.547305041999948 ], [ -56.716104909999956, -21.543814882999982 ], [ -56.722023150999973, -21.543937789999973 ], [ -56.72093339099996, -21.545292120999932 ], [ -56.722376727999972, -21.54857151899995 ], [ -56.724913718999971, -21.548349622999979 ], [ -56.728048645999934, -21.551292715999978 ], [ -56.735545714999944, -21.54678479699993 ], [ -56.734582566999961, -21.545088301999954 ], [ -56.738572247999969, -21.54294766299995 ], [ -56.739786369999933, -21.539446466999948 ], [ -56.743527011999959, -21.541373327999963 ], [ -56.746067190999952, -21.539230270999951 ], [ -56.755369005999967, -21.538114117999953 ], [ -56.760558421999974, -21.540607631999933 ], [ -56.762987530999965, -21.532362130999957 ], [ -56.761423282999942, -21.528743859999963 ], [ -56.765298505999965, -21.522195344999943 ], [ -56.765062498999953, -21.518691902999933 ], [ -56.767235685999935, -21.519033987999933 ], [ -56.76724126299996, -21.515531109999927 ], [ -56.773886558999948, -21.513393063999956 ], [ -56.776783561999935, -21.514075042999934 ], [ -56.781143734999944, -21.505492769999933 ], [ -56.775349118999941, -21.504581118999965 ], [ -56.770767025999987, -21.500393919999965 ], [ -56.769919888999937, -21.501748690999932 ], [ -56.766780237999967, -21.50174433799998 ], [ -56.761476565999942, -21.49608677599997 ], [ -56.759052331999953, -21.501846306999937 ], [ -56.756394572999966, -21.502633470999967 ], [ -56.753742820999946, -21.499691609999957 ], [ -56.749755318999973, -21.501380658999949 ], [ -56.746748727999943, -21.494370123999943 ], [ -56.747957956999983, -21.493355056999974 ], [ -56.746272250999937, -21.490640407999933 ], [ -56.747120561999964, -21.48883355199996 ], [ -56.740610334999985, -21.483399601999963 ], [ -56.740132040999981, -21.48079992199996 ], [ -56.737118416999976, -21.478196048999962 ], [ -56.734944477999932, -21.478644820999932 ], [ -56.734954906999974, -21.472881592999954 ], [ -56.739304407999953, -21.470967573999928 ], [ -56.73955319099997, -21.466899917999967 ], [ -56.738115095999945, -21.46090854199997 ], [ -56.733411740999941, -21.458528046999959 ], [ -56.73160874499996, -21.454344177999928 ], [ -56.729438272999971, -21.453097680999974 ], [ -56.726538668999979, -21.454448907999961 ], [ -56.725706792999972, -21.447441511999955 ], [ -56.729096141999946, -21.442249139999944 ], [ -56.728743194999936, -21.437276324999971 ], [ -56.723931992999951, -21.428454487999943 ], [ -56.716090796999936, -21.426633227999957 ], [ -56.714277684999956, -21.42809925499995 ], [ -56.711382438999976, -21.427416205999975 ], [ -56.711153644999968, -21.421087845999978 ], [ -56.708501797999986, -21.419388266999931 ], [ -56.707172076999939, -21.420515787999932 ], [ -56.704640019999943, -21.419494441999973 ], [ -56.704886693999981, -21.416782761999968 ], [ -56.709113848999948, -21.415095164999968 ], [ -56.710568119999948, -21.41193358299995 ], [ -56.707439418999968, -21.407521269999961 ], [ -56.704545292999967, -21.406499063999945 ], [ -56.703710156999932, -21.401751437999962 ], [ -56.704074695999964, -21.400509072999967 ], [ -56.70781180299997, -21.402323783999975 ], [ -56.710829582999963, -21.401763867999932 ], [ -56.712041141999975, -21.399166995999963 ], [ -56.713610082999935, -21.39905674399995 ], [ -56.718073052999955, -21.399855333999938 ], [ -56.717948120999949, -21.402115037999977 ], [ -56.72036412999995, -21.400763135999966 ], [ -56.724217778999957, -21.40472465199997 ], [ -56.72661885399998, -21.411395610999932 ], [ -56.729151378999973, -21.412303687999952 ], [ -56.730601672999967, -21.411063017999936 ], [ -56.736629508999954, -21.414349641999934 ], [ -56.735900901999969, -21.41683451199998 ], [ -56.741804109999975, -21.422606770999948 ], [ -56.747485919999974, -21.416965534999974 ], [ -56.746526392999954, -21.413573876999976 ], [ -56.74242783699998, -21.410968669999932 ], [ -56.744724494999957, -21.408712040999944 ], [ -56.74472684899996, -21.407356095999944 ], [ -56.742795237999985, -21.407918065999979 ], [ -56.738939352999978, -21.404748222999956 ], [ -56.737007753999933, -21.405310125999961 ], [ -56.735686502999954, -21.401918061999936 ], [ -56.726043794999953, -21.396252453999978 ], [ -56.725446667999961, -21.392861488999927 ], [ -56.723036821999983, -21.391162306999945 ], [ -56.724134902999936, -21.384610013999975 ], [ -56.714129378999985, -21.380186364999929 ], [ -56.715102601999945, -21.376006772999972 ], [ -56.713538325999934, -21.373970069999928 ], [ -56.707391411999936, -21.371021455999937 ], [ -56.704867657999955, -21.366157924999982 ], [ -56.698123947999932, -21.360269913999957 ], [ -56.697647475999986, -21.357331043999977 ], [ -56.694753237999976, -21.356986763999942 ], [ -56.695966099999964, -21.353711905999944 ], [ -56.691271344999961, -21.34918326899998 ], [ -56.689362436999943, -21.339122462999967 ], [ -56.685511185999985, -21.335160371999962 ], [ -56.685034316999975, -21.332560280999928 ], [ -56.683225467999932, -21.332443941999941 ], [ -56.681072336999932, -21.32419073799997 ], [ -56.678786868999964, -21.321474246999969 ], [ -56.679515455999933, -21.31910254099995 ], [ -56.676746007999952, -21.317176356999937 ], [ -56.675054402999933, -21.31864199499995 ], [ -56.675043956999957, -21.323388164999983 ], [ -56.669863147999934, -21.32111791899996 ], [ -56.662134640999966, -21.325622648999968 ], [ -56.66513331799996, -21.332860859999982 ], [ -56.664883010999972, -21.336815508999962 ], [ -56.668015055999945, -21.33851672399993 ], [ -56.66547931499997, -21.339754710999955 ], [ -56.665947397999958, -21.346196812999949 ], [ -56.66389705499995, -21.346079558999975 ], [ -56.664616240999976, -21.348002096999949 ], [ -56.66304831399998, -21.347998959999927 ], [ -56.662433934999967, -21.352856834999955 ], [ -56.659657041999935, -21.353981303999944 ], [ -56.658440777999942, -21.358272788999955 ], [ -56.649520781999968, -21.355542511999943 ], [ -56.640590962999966, -21.356879588999959 ], [ -56.638543230999971, -21.355745124999942 ], [ -56.634439250999947, -21.356753371999957 ], [ -56.633830589999945, -21.35901195799994 ], [ -56.632149643999981, -21.355844182999931 ], [ -56.630578846999981, -21.356857863999949 ], [ -56.630587060999972, -21.353580840999939 ], [ -56.628296956999975, -21.352897700999961 ], [ -56.626961518999963, -21.356284947999939 ], [ -56.624553132999949, -21.354697529999953 ], [ -56.62540183699997, -21.353004434999946 ], [ -56.622878506999939, -21.349156599999958 ], [ -56.623730079999973, -21.346333448999928 ], [ -56.620590833999984, -21.347569397999962 ], [ -56.615769050999972, -21.346315431999983 ], [ -56.614071427999932, -21.349814684999956 ], [ -56.610692765999943, -21.350258870999937 ], [ -56.610930893999978, -21.351389490999964 ], [ -56.610689482999987, -21.351501869999936 ], [ -56.607804062999946, -21.347879077999949 ], [ -56.604423912999948, -21.348888280999972 ], [ -56.602500783999972, -21.346397502999935 ], [ -56.600207557999966, -21.346957208999982 ], [ -56.597215821999953, -21.338249018999932 ], [ -56.592515024999955, -21.337107619999927 ], [ -56.591198020999968, -21.333601278999936 ], [ -56.588420024999948, -21.335063610999953 ], [ -56.587702285999967, -21.332914881999955 ], [ -56.580583954999952, -21.333801234999953 ], [ -56.574920908999957, -21.331865918999938 ], [ -56.571540586999959, -21.332987402999947 ], [ -56.57285449799997, -21.337397845999931 ], [ -56.570559663999973, -21.338521836999973 ], [ -56.57031240799995, -21.340555230999939 ], [ -56.562470519999977, -21.341213080999978 ], [ -56.561495581999964, -21.34460050399997 ], [ -56.560047247999933, -21.344935759999942 ], [ -56.561129317999985, -21.346068652999975 ], [ -56.560156, -21.348891150999975 ], [ -56.562079107999978, -21.35115607399996 ], [ -56.559296104999987, -21.354087002999961 ], [ -56.558544180999945, -21.363464104999935 ], [ -56.556610771999942, -21.364588844999957 ], [ -56.557328198999983, -21.366737919999935 ], [ -56.551664216999939, -21.36480181099995 ], [ -56.548998307999966, -21.368636599999945 ], [ -56.546827200999985, -21.368517814999962 ], [ -56.546109115999968, -21.366707961999964 ], [ -56.544534829999975, -21.368624548999946 ], [ -56.545126292999953, -21.372468303999938 ], [ -56.542950223999981, -21.373931263999964 ], [ -56.54030568099995, -21.370873135999943 ], [ -56.540555282999946, -21.368161725999983 ], [ -56.535605745999987, -21.369278164999969 ], [ -56.528933563999942, -21.380898488999946 ], [ -56.523621657999968, -21.381900608999956 ], [ -56.523132507999946, -21.383933224999964 ], [ -56.51974826999998, -21.385844639999959 ], [ -56.511657880999962, -21.387855286999979 ], [ -56.50864497799995, -21.386829374999934 ], [ -56.505735239999979, -21.391001765999931 ], [ -56.503925470999945, -21.390996422999933 ], [ -56.502824810999982, -21.395400200999973 ], [ -56.501255403999949, -21.395621640999934 ], [ -56.491739448999965, -21.390959939999959 ], [ -56.484859625999945, -21.391729961999943 ], [ -56.485376202999987, -21.382013537999967 ], [ -56.480795126999965, -21.380982538999945 ], [ -56.479464446999941, -21.381995300999961 ], [ -56.479597808999983, -21.378379920999976 ], [ -56.47223637999997, -21.379034778999937 ], [ -56.469590150999977, -21.376766566999947 ], [ -56.460793318999947, -21.374026464999929 ], [ -56.462532185999976, -21.360359207999977 ], [ -56.457452240999942, -21.364071825999929 ], [ -56.456011600999943, -21.362146106999944 ], [ -56.452631407999945, -21.362813195999934 ], [ -56.451191505999986, -21.36077450099998 ], [ -56.448895834999973, -21.361783866999929 ], [ -56.448300581999945, -21.359634980999942 ], [ -56.442998168999964, -21.358261556999935 ], [ -56.432614991999969, -21.360712759999956 ], [ -56.428643715999954, -21.358213331999934 ], [ -56.429253555999935, -21.35652022599993 ], [ -56.425524682999935, -21.353795676999937 ], [ -56.426255531999971, -21.351990058999945 ], [ -56.420105711999952, -21.351516967999942 ], [ -56.41794392099996, -21.349136692999934 ], [ -56.413596284999983, -21.350477488999957 ], [ -56.412894087999973, -21.345051143999967 ], [ -56.410476511999946, -21.346398595999972 ], [ -56.409278450999977, -21.344360399999971 ], [ -56.405660572999977, -21.344234704999963 ], [ -56.401677830999972, -21.344785477999949 ], [ -56.401309307999952, -21.346479114999966 ], [ -56.395521927999937, -21.345893484999976 ], [ -56.393224734999933, -21.347241117999943 ], [ -56.390816753999957, -21.34621552599998 ], [ -56.39034388999994, -21.34384079299997 ], [ -56.380703928999935, -21.341658622999944 ], [ -56.380111890999956, -21.339057326999978 ], [ -56.376372923999952, -21.339043493999952 ], [ -56.374793662999934, -21.341749672999981 ], [ -56.366603260999966, -21.339119892999975 ], [ -56.365166735999935, -21.336628524999981 ], [ -56.355162345999986, -21.335234531999959 ], [ -56.350951538999936, -21.332845316999965 ], [ -56.342625442999974, -21.333830060999958 ], [ -56.33805760499996, -21.330422032999934 ], [ -56.333222368999941, -21.332889086999955 ], [ -56.32648680799997, -21.328907234999974 ], [ -56.323711323999987, -21.329235125999958 ], [ -56.323218071999975, -21.331605912999976 ], [ -56.317307185999937, -21.331921043999955 ], [ -56.314545276999979, -21.329310937999935 ], [ -56.314057653999953, -21.33043897999994 ], [ -56.310202119999985, -21.329632204999939 ], [ -56.305642864999982, -21.32464158099998 ], [ -56.297557520999987, -21.325737799999956 ], [ -56.29623474999994, -21.324941271999933 ], [ -56.296846484999946, -21.323135967999974 ], [ -56.294201010999984, -21.321542891999968 ], [ -56.282126896999955, -21.324542826999959 ], [ -56.281779915999948, -21.321490300999983 ], [ -56.286730890999934, -21.320155477999947 ], [ -56.285315901999979, -21.313482472999965 ], [ -56.28629854899998, -21.309757757999932 ], [ -56.284979261999979, -21.308283323999945 ], [ -56.286792546999948, -21.307387087999928 ], [ -56.282127738999975, -21.299570218999975 ], [ -56.279597292999938, -21.299220600999945 ], [ -56.280211072999975, -21.296963171999948 ], [ -56.275764923999986, -21.293893274999959 ], [ -56.275432519999981, -21.28790289899996 ], [ -56.273255140999936, -21.289362573999938 ], [ -56.268565338999963, -21.286856115999967 ], [ -56.25951650199994, -21.288172686999928 ], [ -56.255918740999959, -21.284314786999971 ], [ -56.258097340999939, -21.282629472999929 ], [ -56.257031148999943, -21.278895890999934 ], [ -56.256300913999951, -21.280248563999976 ], [ -56.252333398999951, -21.278084108999963 ], [ -56.249309743999959, -21.279991678999977 ], [ -56.249664580999934, -21.28134915399994 ], [ -56.242678007999984, -21.280187859999955 ], [ -56.241218649999951, -21.282667431999982 ], [ -56.238927849999982, -21.28265709599998 ], [ -56.233035830999938, -21.279692264999937 ], [ -56.229532641999981, -21.28103239099994 ], [ -56.22869873999997, -21.279107561999979 ], [ -56.225566110999978, -21.278754158999959 ], [ -56.221603864999963, -21.275685090999957 ], [ -56.219774517999952, -21.279631355999982 ], [ -56.22241212299997, -21.282468488999939 ], [ -56.223583122999969, -21.289027682999972 ], [ -56.220566031999965, -21.289578864999953 ], [ -56.227902188999963, -21.293115431999979 ], [ -56.233535456999959, -21.299582035999947 ], [ -56.23218921199998, -21.303417689999947 ], [ -56.228212607999978, -21.302947536999966 ], [ -56.224466615999972, -21.304512293999949 ], [ -56.223601784999971, -21.308463248999942 ], [ -56.220694081999966, -21.311048636999942 ], [ -56.221529235999981, -21.312747412999954 ], [ -56.219589023999958, -21.314772357999971 ], [ -56.222363218999931, -21.314672271999939 ], [ -56.224641214999963, -21.317168685999945 ], [ -56.224249730999986, -21.322816725999928 ], [ -56.221702375999939, -21.325629875999937 ], [ -56.226964896999959, -21.334015756999975 ], [ -56.227635094999982, -21.344188498999927 ], [ -56.228956464999953, -21.345211645999939 ], [ -56.227722735999976, -21.350516783999979 ], [ -56.234459405999985, -21.353937430999963 ], [ -56.234321244999933, -21.357326610999962 ], [ -56.232264162999968, -21.358560162999936 ], [ -56.234056404999933, -21.361845220999953 ], [ -56.237066161999962, -21.362988934999976 ], [ -56.237047435999955, -21.366604748999976 ], [ -56.235471211999936, -21.368179546999954 ], [ -56.236645101999954, -21.37439960599994 ], [ -56.239292020999983, -21.375767500999928 ], [ -56.24227302099996, -21.38256082099997 ], [ -56.246983842999953, -21.381452019999927 ], [ -56.246957246999955, -21.386649767999927 ], [ -56.250087614999984, -21.387906734999945 ], [ -56.249688180999954, -21.395249672999967 ], [ -56.25415303799997, -21.395156656999973 ] ] ] ] } },
{ "type": "Feature", "properties": { "nome_bacia": null, "area_ha": null }, "geometry": { "type": "MultiPolygon", "coordinates": [ [ [ [ -56.676625477999949, -21.317176124999946 ], [ -56.672085354999979, -21.29795689499997 ], [ -56.672811919999958, -21.296602122999957 ], [ -56.675823441999967, -21.297964136999951 ], [ -56.67824647499998, -21.292657652999935 ], [ -56.684392926999976, -21.294138190999945 ], [ -56.683435618999965, -21.290633432999982 ], [ -56.686812957999962, -21.290074594999965 ], [ -56.685852978999947, -21.287925807999954 ], [ -56.682356150999965, -21.288032187999931 ], [ -56.677057927999954, -21.284857969999962 ], [ -56.675269757999956, -21.275588438999932 ], [ -56.671176032999938, -21.273094449999974 ], [ -56.670461899999964, -21.268911766999963 ], [ -56.678920852999966, -21.259774925999977 ], [ -56.677609578999977, -21.252992130999928 ], [ -56.678579267999964, -21.250507926999944 ], [ -56.671232975999942, -21.247442776999947 ], [ -56.672823272999949, -21.236936483999955 ], [ -56.671019111999954, -21.235237954999945 ], [ -56.671273559999975, -21.229136241999981 ], [ -56.669587702999934, -21.228454850999981 ], [ -56.668153122999968, -21.223254029999964 ], [ -56.671047926999961, -21.222242546999951 ], [ -56.673225723999963, -21.218404739999983 ], [ -56.674686440999949, -21.211740178999946 ], [ -56.671676669999954, -21.210378378999962 ], [ -56.675439213999937, -21.198181187999978 ], [ -56.66677264499998, -21.193983220999939 ], [ -56.661825486999987, -21.196911454999963 ], [ -56.662320031999968, -21.191375370999936 ], [ -56.664612644999977, -21.190023732999975 ], [ -56.661606491999976, -21.187305786999957 ], [ -56.661252446999981, -21.184027961999959 ], [ -56.664870306999944, -21.18256602699995 ], [ -56.663668199999961, -21.181320601999971 ], [ -56.664761603999978, -21.177367552999954 ], [ -56.662956969999982, -21.176234094999927 ], [ -56.66308147899997, -21.174426144999927 ], [ -56.670556436999959, -21.172067736999963 ], [ -56.672613331999969, -21.168116727999973 ], [ -56.676347907999968, -21.168123915999956 ], [ -56.677085301999966, -21.161457900999949 ], [ -56.675888423999936, -21.157839657999943 ], [ -56.688438026999961, -21.147805713999958 ], [ -56.686762981999948, -21.142378450999956 ], [ -56.679786619999959, -21.137732049999954 ], [ -56.679319671999963, -21.130837833999976 ], [ -56.677394617999937, -21.129930186999957 ], [ -56.676922170999944, -21.125635208999938 ], [ -56.672585565999952, -21.125965937999979 ], [ -56.668620107999971, -21.121776868999973 ], [ -56.669354832999943, -21.116354121999962 ], [ -56.674782813999968, -21.11252253899994 ], [ -56.673484541999983, -21.10042838399994 ], [ -56.679028056999982, -21.098404862999928 ], [ -56.683858408999981, -21.091972566999971 ], [ -56.692286096999965, -21.09266617399993 ], [ -56.693376661999935, -21.089278044999958 ], [ -56.697712389999936, -21.088833825999927 ], [ -56.702053500999966, -21.085677285999964 ], [ -56.705906605999985, -21.085684006999941 ], [ -56.70675590899998, -21.082408310999938 ], [ -56.708559756999932, -21.08354153099998 ], [ -56.709886633999986, -21.082300522999958 ], [ -56.70869528999998, -21.075744146999966 ], [ -56.704126679999945, -21.072459075999973 ], [ -56.712078963999943, -21.06930874699998 ], [ -56.710415269999942, -21.058005223999942 ], [ -56.707894610999972, -21.054158786999949 ], [ -56.711029563999944, -21.051678028999959 ], [ -56.712712738999983, -21.052697829999943 ], [ -56.715242954999951, -21.051571972999966 ], [ -56.715851227999963, -21.048295809999956 ], [ -56.708761263999975, -21.041842388999953 ], [ -56.710453070999961, -21.038455152999973 ], [ -56.704927311999938, -21.032682344999955 ], [ -56.705661791999944, -21.026468302999945 ], [ -56.704461691999938, -21.024657985999966 ], [ -56.708438573999956, -21.022065777999956 ], [ -56.712771231999966, -21.022186092999959 ], [ -56.710850408999931, -21.019696709999948 ], [ -56.711099062999949, -21.015628877999973 ], [ -56.716038553999965, -21.012925173999975 ], [ -56.715321732999939, -21.010098783999979 ], [ -56.718097526999941, -21.006035144999942 ], [ -56.718829383999946, -21.000725024999952 ], [ -56.713176846999943, -20.998907353999982 ], [ -56.707894951999947, -20.992231029999971 ], [ -56.701278017999982, -20.991541432999952 ], [ -56.69839607199998, -20.988485268999966 ], [ -56.695388482999931, -20.988140856999962 ], [ -56.695031821999976, -20.986106086999939 ], [ -56.691421571999967, -20.986212529999932 ], [ -56.689741144999971, -20.984175345999972 ], [ -56.685288875999959, -20.98428034899996 ], [ -56.684935199999984, -20.980776380999941 ], [ -56.680970538999986, -20.977943807999964 ], [ -56.681710971999962, -20.969243710999933 ], [ -56.675228364999953, -20.962564130999965 ], [ -56.668965421999985, -20.965603173999966 ], [ -56.666561823999984, -20.964468364999959 ], [ -56.661624338999957, -20.966605713999968 ], [ -56.65199705699996, -20.967490565999981 ], [ -56.650326284999949, -20.961723814999971 ], [ -56.646113558999957, -20.962506186999974 ], [ -56.64598693399995, -20.965217946999928 ], [ -56.643698971999981, -20.966004242999929 ], [ -56.643574440999942, -20.967812222999953 ], [ -56.640330695999978, -20.965884225999957 ], [ -56.634192090999932, -20.967001283999934 ], [ -56.629745082999932, -20.965070501999946 ], [ -56.628054833999954, -20.967440006999936 ], [ -56.619392269999935, -20.967533829999979 ], [ -56.616028074999974, -20.965718274999972 ], [ -56.613892344999954, -20.954073646999973 ], [ -56.605357363999985, -20.951567983999951 ], [ -56.599718011999983, -20.946017412999936 ], [ -56.598031436999975, -20.946917678999966 ], [ -56.591421053999966, -20.944754680999949 ], [ -56.58722432199994, -20.939772324999979 ], [ -56.584222358999966, -20.937844082999959 ], [ -56.578809812999964, -20.937717640999949 ], [ -56.57785262699997, -20.935907265999958 ], [ -56.571604325999942, -20.933518514999946 ], [ -56.571488607999981, -20.931936102999941 ], [ -56.565475054999979, -20.931695012999967 ], [ -56.561131358999944, -20.936317090999978 ], [ -56.558605864999947, -20.936197633999939 ], [ -56.557749243999979, -20.941167657999927 ], [ -56.559911836999959, -20.942077251999933 ], [ -56.559784763999971, -20.94433715599996 ], [ -56.557853871999953, -20.946479225999951 ], [ -56.55545253799994, -20.944890868999948 ], [ -56.550869374999934, -20.948947097999962 ], [ -56.550372685999946, -20.954144133999932 ], [ -56.551693627999953, -20.954938668999944 ], [ -56.547244573999933, -20.954248801999938 ], [ -56.543144599999948, -20.957402093999974 ], [ -56.542891421999968, -20.961582581999949 ], [ -56.536403909999933, -20.958626956999979 ], [ -56.53531406999997, -20.960883987999978 ], [ -56.53182133699994, -20.962117486999944 ], [ -56.531444886999964, -20.967088666999928 ], [ -56.529521431999967, -20.966631370999949 ], [ -56.524579501999938, -20.969555987999968 ], [ -56.522416740999972, -20.968645718999937 ], [ -56.519883651999976, -20.970672706999949 ], [ -56.514713067999935, -20.969754068999976 ], [ -56.510603905999972, -20.975392625999973 ], [ -56.504832851999936, -20.974132906999955 ], [ -56.503253203999975, -20.97887438999993 ], [ -56.49748410899997, -20.976936544999944 ], [ -56.49804243799997, -20.989933815999962 ], [ -56.49407163099994, -20.989922066999952 ], [ -56.493117584999936, -20.987319971999966 ], [ -56.490230291999978, -20.98719841299993 ], [ -56.489597409999931, -20.996349818999931 ], [ -56.482254315999967, -20.997118695999973 ], [ -56.478988550999986, -21.001967956999977 ], [ -56.474530178999942, -21.003649286999973 ], [ -56.465392877999932, -21.001247925999962 ], [ -56.46540414499998, -20.998083780999934 ], [ -56.462382007999963, -21.001916321999943 ], [ -56.461059524999939, -21.001573088999976 ], [ -56.459517012999981, -20.995465948999936 ], [ -56.456024929999955, -20.996132931999966 ], [ -56.45193990599995, -20.994424801999969 ], [ -56.449393844999975, -20.999614845999929 ], [ -56.447719096999947, -20.996897238999964 ], [ -56.442062605999979, -20.997104906999937 ], [ -56.440869737999947, -20.994275871999946 ], [ -56.437495152999986, -20.995733676999976 ], [ -56.437489226999958, -20.997315742999945 ], [ -56.434962183999971, -20.997307374999934 ], [ -56.432768430999943, -21.004645341999947 ], [ -56.430593749999957, -21.006898262999982 ], [ -56.425417778999986, -21.007219692999968 ], [ -56.419535829999973, -21.003357699999981 ], [ -56.416767712999956, -21.003461179999931 ], [ -56.416291221999984, -21.002216515999976 ], [ -56.418826212999932, -21.000191116999929 ], [ -56.41763463999996, -20.997136049999938 ], [ -56.412222637999946, -20.996326413999952 ], [ -56.40886553699994, -20.993263572999979 ], [ -56.404767030999949, -20.995057483999972 ], [ -56.401045481999972, -20.992897423999977 ], [ -56.39911103999998, -20.995150559999956 ], [ -56.392733222999937, -20.995240874999979 ], [ -56.387064312999939, -20.998497653999948 ], [ -56.385268365999934, -20.996231234999982 ], [ -56.383462506999933, -20.99645058699997 ], [ -56.380719669999962, -20.99045160999998 ], [ -56.378304609999986, -20.992476874999966 ], [ -56.371451303999947, -20.991208692999976 ], [ -56.366027402999975, -20.993335588999969 ], [ -56.36483409899995, -20.990958035999938 ], [ -56.36051075599994, -20.989020738999955 ], [ -56.358693617999961, -20.991838998999981 ], [ -56.354957308999985, -20.993294015999936 ], [ -56.353413377999971, -20.988541955999949 ], [ -56.346320226999978, -20.987158919999956 ], [ -56.343547948999969, -20.98827833699994 ], [ -56.343052105999959, -20.991553497999973 ], [ -56.339424989999941, -20.995494629999939 ], [ -56.33864319099996, -21.009051842999952 ], [ -56.334046809999961, -21.014345022999976 ], [ -56.330437052999969, -21.014217690999942 ], [ -56.325007700999947, -21.017247413999939 ], [ -56.321052660999953, -21.013615580999954 ], [ -56.314538606999974, -21.01697945199993 ], [ -56.306371228999978, -21.01344342799996 ], [ -56.302394684999967, -21.014557240999977 ], [ -56.299390818999939, -21.01352776899995 ], [ -56.297933558999944, -21.016346819999967 ], [ -56.294694206999964, -21.014186451999933 ], [ -56.287951345999943, -21.014949391999949 ], [ -56.286034013999938, -21.01324637099998 ], [ -56.281914643999983, -21.018992075999961 ], [ -56.281174847999978, -21.022717960999955 ], [ -56.268796338999948, -21.019049134999932 ], [ -56.268779259999974, -21.022551960999976 ], [ -56.26359810699995, -21.023772833999942 ], [ -56.260430583999948, -21.031556118999958 ], [ -56.256571298999972, -21.03312109899997 ], [ -56.256221960999937, -21.030746742999952 ], [ -56.253331892999938, -21.031072890999951 ], [ -56.248415277999982, -21.027435408999963 ], [ -56.245878160999951, -21.02934502599993 ], [ -56.244776870999942, -21.032956182999953 ], [ -56.242494717999932, -21.032042076999971 ], [ -56.241996742999959, -21.035316859999966 ], [ -56.239228909999952, -21.035191558999941 ], [ -56.237523156999941, -21.039251931999956 ], [ -56.231972781999957, -21.041938798999979 ], [ -56.232805505999977, -21.043863625999961 ], [ -56.231118617999982, -21.044195041999956 ], [ -56.231348198999967, -21.046343019999938 ], [ -56.22892643299997, -21.049157063999928 ], [ -56.229507836999971, -21.053114764999975 ], [ -56.225161539999931, -21.055580970999927 ], [ -56.22634022799997, -21.060445350999942 ], [ -56.223427011999945, -21.065064958999983 ], [ -56.228323211999964, -21.072771289999935 ], [ -56.230366161999939, -21.073458411999979 ], [ -56.231313201999967, -21.076626746999978 ], [ -56.236234757999966, -21.07947397099997 ], [ -56.234530114999984, -21.083195245999946 ], [ -56.232603280999967, -21.083299705999934 ], [ -56.230419253999969, -21.086566791999928 ], [ -56.231977340999947, -21.087929771999939 ], [ -56.231238234999978, -21.091203398999937 ], [ -56.233259410999949, -21.096184476999952 ], [ -56.237088830999937, -21.10083463899997 ], [ -56.230812395999976, -21.103744447999929 ], [ -56.229384761999938, -21.100347832999944 ], [ -56.22432883099998, -21.100098909999929 ], [ -56.222748692999971, -21.102916669999956 ], [ -56.22611094399997, -21.10473993599993 ], [ -56.228377730999966, -21.108818240999938 ], [ -56.236189861999947, -21.111791552999932 ], [ -56.246782220999933, -21.112742895999929 ], [ -56.247878662999938, -21.110261798999943 ], [ -56.251973393999947, -21.110166979999974 ], [ -56.255477388999964, -21.107809370999973 ], [ -56.25657364999995, -21.105328210999971 ], [ -56.259458108999979, -21.10647088199994 ], [ -56.258258376999947, -21.105561688999956 ], [ -56.258756843999947, -21.102173720999929 ], [ -56.262005095999939, -21.102753025999959 ], [ -56.265478746999975, -21.106497071999968 ], [ -56.266706279999937, -21.101756307999949 ], [ -56.273208055999987, -21.101897461999954 ], [ -56.275246928999934, -21.103601152999943 ], [ -56.27599007699996, -21.099310216999982 ], [ -56.279850358999965, -21.097857785999963 ], [ -56.282735410999976, -21.098886902999936 ], [ -56.283229501999983, -21.096290068999963 ], [ -56.286474199999986, -21.097659680999982 ], [ -56.286963905999983, -21.095966769999961 ], [ -56.291647342999966, -21.098585319999927 ], [ -56.296110198999941, -21.097021864999931 ], [ -56.298748588999956, -21.099292909999974 ], [ -56.299842242999944, -21.097150476999957 ], [ -56.30668680399998, -21.101246624999931 ], [ -56.308762147999971, -21.09515304699994 ], [ -56.312750166999933, -21.092005172999961 ], [ -56.315057509999974, -21.087720586999978 ], [ -56.316624396999941, -21.087387863999936 ], [ -56.318779805999952, -21.089995470999952 ], [ -56.327322814999945, -21.091272560999982 ], [ -56.327673396999955, -21.093647015999977 ], [ -56.329596008999943, -21.094558584999959 ], [ -56.329936760999942, -21.099079958999937 ], [ -56.335094907999974, -21.103507349999973 ], [ -56.335668476999956, -21.109950707999928 ], [ -56.339513260999979, -21.111886588999937 ], [ -56.339142183999968, -21.114145268999948 ], [ -56.346963387999949, -21.115644687999975 ], [ -56.34611642699997, -21.116545382999959 ], [ -56.349225798999953, -21.121529359999954 ], [ -56.353439496999954, -21.121884531999967 ], [ -56.359080846999973, -21.126313055999958 ], [ -56.362576843999932, -21.125535221999939 ], [ -56.36365292499994, -21.127347190999956 ], [ -56.362050414999942, -21.135929244999943 ], [ -56.365176836999979, -21.13718399499993 ], [ -56.366362358999936, -21.141595524999957 ], [ -56.368767597999977, -21.142508469999939 ], [ -56.36934918299994, -21.147369706999939 ], [ -56.365484803999948, -21.149728329999959 ], [ -56.36207669099997, -21.157964536999941 ], [ -56.362911229999952, -21.160001698999963 ], [ -56.364119048999953, -21.159215222999933 ], [ -56.368565783999941, -21.161717874999965 ], [ -56.366745879999939, -21.16476221399995 ], [ -56.368305567999982, -21.16623692099995 ], [ -56.366846571999986, -21.16939554399994 ], [ -56.367923485999938, -21.171094548999974 ], [ -56.365623987999982, -21.173571934999927 ], [ -56.368022052999947, -21.176293009999938 ], [ -56.367757457999971, -21.181828923999944 ], [ -56.369919884999945, -21.183306096999956 ], [ -56.374503058999949, -21.182193056999949 ], [ -56.374965956999972, -21.186714779999932 ], [ -56.377005972999939, -21.188643388999935 ], [ -56.375915075999956, -21.190221400999974 ], [ -56.377958229999933, -21.191471930999967 ], [ -56.375860498999941, -21.203216298999962 ], [ -56.374531701999956, -21.204002400999968 ], [ -56.375097967999977, -21.212592516999962 ], [ -56.379061858999933, -21.215658040999926 ], [ -56.376257971999962, -21.223331762999976 ], [ -56.377213023999957, -21.225482233999969 ], [ -56.380103133999967, -21.226058012999943 ], [ -56.380332707999969, -21.228770715999929 ], [ -56.382375010999965, -21.230360233999932 ], [ -56.384907852999959, -21.229917508999961 ], [ -56.386706269999934, -21.232183937999935 ], [ -56.389597945999981, -21.232420523999963 ], [ -56.392231810999931, -21.236724151999965 ], [ -56.390891188999944, -21.240335129999949 ], [ -56.393897951999975, -21.241927991999944 ], [ -56.397039030999963, -21.240131341999927 ], [ -56.398116786999935, -21.241830160999939 ], [ -56.405230021999955, -21.241403414999979 ], [ -56.405599111999948, -21.239483642999971 ], [ -56.40982846299994, -21.236786625999969 ], [ -56.41127245399997, -21.237356586999965 ], [ -56.414424627999949, -21.232734610999955 ], [ -56.419136329999958, -21.229812695999954 ], [ -56.422021421999943, -21.231743681999944 ], [ -56.422992140999952, -21.230052025999953 ], [ -56.42467507799995, -21.231187832999979 ], [ -56.427094788999966, -21.228823004999981 ], [ -56.428778180999984, -21.229845607999948 ], [ -56.430592460999947, -21.228156759999933 ], [ -56.435163897999985, -21.230319308999981 ], [ -56.437318281999978, -21.234281384999974 ], [ -56.438888188999954, -21.23349559199994 ], [ -56.440329707999979, -21.23474338099993 ], [ -56.442742864999957, -21.234073511999952 ], [ -56.442628536999962, -21.23237792599997 ], [ -56.446125386999938, -21.231937460999973 ], [ -56.450322400999937, -21.237714215999972 ], [ -56.455144316999963, -21.237503981999964 ], [ -56.455859683999961, -21.239653253999961 ], [ -56.454403190999983, -21.242360656999949 ], [ -56.457161910999957, -21.246098563999965 ], [ -56.455341472999976, -21.24948265699993 ], [ -56.455925810999986, -21.254456546999961 ], [ -56.453271006999955, -21.255238979999945 ], [ -56.449263330999941, -21.263249070999962 ], [ -56.456732729999942, -21.264516311999955 ], [ -56.457571623999968, -21.265874951999933 ], [ -56.46166778099996, -21.26656616799994 ], [ -56.465173964999963, -21.263752290999946 ], [ -56.466374215999963, -21.265225198999929 ], [ -56.469749683999964, -21.265235852999979 ], [ -56.473504279999986, -21.260275616999934 ], [ -56.474980633999962, -21.251918015999934 ], [ -56.481241479999937, -21.253971422999939 ], [ -56.484981112999947, -21.253191863999973 ], [ -56.487140681999961, -21.256136437999942 ], [ -56.489192473999935, -21.255351643999973 ], [ -56.491839979999952, -21.25671581499995 ], [ -56.493779002999986, -21.253670489999934 ], [ -56.497517036999966, -21.253342629999963 ], [ -56.49931595299995, -21.256060097999978 ], [ -56.498823482999967, -21.259109567999928 ], [ -56.502676570999938, -21.260364211999956 ], [ -56.502420803999939, -21.26477033499998 ], [ -56.505641973999957, -21.274837023999964 ], [ -56.510341573999938, -21.275528832999953 ], [ -56.511405090999972, -21.282085988999938 ], [ -56.514053784999987, -21.283223491999934 ], [ -56.519045726999934, -21.305273072999967 ], [ -56.528694569999971, -21.304622515999938 ], [ -56.525059342999953, -21.310149224999975 ], [ -56.529034389999936, -21.311516566999956 ], [ -56.531194956999968, -21.314686463999976 ], [ -56.531896381999957, -21.321694448999949 ], [ -56.529962367999985, -21.323045219999983 ], [ -56.535619124999982, -21.32667700199994 ], [ -56.537174640999979, -21.330636170999981 ], [ -56.540787791999946, -21.332228121999947 ], [ -56.539579093999976, -21.333128774999977 ], [ -56.540291661999959, -21.336633850999931 ], [ -56.544867632999967, -21.339019366999935 ], [ -56.54558418199997, -21.341281203999927 ], [ -56.549081282999964, -21.341516727999931 ], [ -56.556295441999964, -21.349106875999951 ], [ -56.560152966999965, -21.349908040999935 ], [ -56.561129317999985, -21.346068652999975 ], [ -56.559925443999987, -21.345274481999979 ], [ -56.561495581999964, -21.34460050399997 ], [ -56.56222908999996, -21.341325390999941 ], [ -56.57031240799995, -21.340555230999939 ], [ -56.570559663999973, -21.338521836999973 ], [ -56.57285449799997, -21.337397845999931 ], [ -56.571661783999957, -21.332761607999942 ], [ -56.575282527999946, -21.331866832999935 ], [ -56.583478395999975, -21.333808431999955 ], [ -56.586134924999953, -21.332684925999956 ], [ -56.588420024999948, -21.335063610999953 ], [ -56.591198020999968, -21.333601278999936 ], [ -56.592515024999955, -21.337107619999927 ], [ -56.597215821999953, -21.338249018999932 ], [ -56.600207557999966, -21.346957208999982 ], [ -56.602500783999972, -21.346397502999935 ], [ -56.604423912999948, -21.348888280999972 ], [ -56.607804062999946, -21.347879077999949 ], [ -56.610689482999987, -21.351501869999936 ], [ -56.610692765999943, -21.350258870999937 ], [ -56.614071427999932, -21.349814684999956 ], [ -56.615769050999972, -21.346315431999983 ], [ -56.620590833999984, -21.347569397999962 ], [ -56.623730079999973, -21.346333448999928 ], [ -56.622878506999939, -21.349156599999958 ], [ -56.62540183699997, -21.353004434999946 ], [ -56.624553132999949, -21.354697529999953 ], [ -56.626961518999963, -21.356284947999939 ], [ -56.628296956999975, -21.352897700999961 ], [ -56.630587060999972, -21.353580840999939 ], [ -56.630578846999981, -21.356857863999949 ], [ -56.632149643999981, -21.355844182999931 ], [ -56.633830589999945, -21.35901195799994 ], [ -56.634439250999947, -21.356753371999957 ], [ -56.638543230999971, -21.355745124999942 ], [ -56.640590962999966, -21.356879588999959 ], [ -56.649520781999968, -21.355542511999943 ], [ -56.658440777999942, -21.358272788999955 ], [ -56.659657041999935, -21.353981303999944 ], [ -56.662433934999967, -21.352856834999955 ], [ -56.66304831399998, -21.347998959999927 ], [ -56.664616240999976, -21.348002096999949 ], [ -56.66389705499995, -21.346079558999975 ], [ -56.665947397999958, -21.346196812999949 ], [ -56.66547931499997, -21.339754710999955 ], [ -56.668015055999945, -21.33851672399993 ], [ -56.664883010999972, -21.336815508999962 ], [ -56.66513331799996, -21.332860859999982 ], [ -56.662134640999966, -21.325622648999968 ], [ -56.669863147999934, -21.32111791899996 ], [ -56.675043956999957, -21.323388164999983 ], [ -56.675054402999933, -21.31864199499995 ], [ -56.676625477999949, -21.317176124999946 ] ] ] ] } },
{ "type": "Feature", "properties": { "nome_bacia": null, "area_ha": null }, "geometry": { "type": "MultiPolygon", "coordinates": [ [ [ [ -56.875993318999974, -20.57070848799998 ], [ -56.873263940999948, -20.565499298999953 ], [ -56.882550852999941, -20.55870684599995 ], [ -56.884773635999977, -20.560447717999978 ], [ -56.89780637299998, -20.555253042999936 ], [ -56.894449818999931, -20.547949517999939 ], [ -56.904795495999963, -20.534876496999971 ], [ -56.906513716999939, -20.531470436999939 ], [ -56.906163779999986, -20.527911380999967 ], [ -56.908923132999973, -20.524492841999972 ], [ -56.911458417999938, -20.515955854999959 ], [ -56.911400501999935, -20.513116883999942 ], [ -56.90905659799995, -20.510864939999976 ], [ -56.909783192999953, -20.508742255999948 ], [ -56.907019498999944, -20.505318698999929 ], [ -56.908888657999967, -20.500555555999938 ], [ -56.914899607999985, -20.49735951599996 ], [ -56.913888670999938, -20.49 ], [ -56.915608298999985, -20.487355501999957 ], [ -56.911788959999967, -20.480695428999979 ], [ -56.912275481999984, -20.476784535999968 ], [ -56.914872480999975, -20.473695454999927 ], [ -56.91594914999996, -20.465680253999949 ], [ -56.921036808999986, -20.454265232999944 ], [ -56.925906774999987, -20.449875819999932 ], [ -56.928757275999942, -20.444579146999956 ], [ -56.932862532999934, -20.442983539999943 ], [ -56.933342606999986, -20.441388888999938 ], [ -56.93025481899997, -20.438626137999961 ], [ -56.92963266199996, -20.435748510999929 ], [ -56.932289882999953, -20.418056719999981 ], [ -56.936395410999978, -20.418301404999966 ], [ -56.941584661999968, -20.410831997999935 ], [ -56.948980553999945, -20.405247100999929 ], [ -56.954204119999986, -20.404456214999982 ], [ -56.952830817999939, -20.396243665999975 ], [ -56.955260849999945, -20.391619334999973 ], [ -56.958139426999935, -20.390996634999965 ], [ -56.960305649999952, -20.388291263999974 ], [ -56.967390123999962, -20.387567516999979 ], [ -56.972570829999938, -20.381015679999962 ], [ -56.97618780199997, -20.380440995999948 ], [ -56.979555612999945, -20.382420584999977 ], [ -56.98247867799995, -20.36619961699995 ], [ -56.98727553699996, -20.366798986999981 ], [ -56.98760363699995, -20.363732691999928 ], [ -56.991592878999938, -20.359166666999954 ], [ -56.98083328499996, -20.353989742999943 ], [ -56.97666660799996, -20.354166666999959 ], [ -56.972280194999939, -20.35 ], [ -56.968611031999956, -20.350555555999961 ], [ -56.961666569999977, -20.347222221999971 ], [ -56.958611005999956, -20.348333332999971 ], [ -56.956111, -20.346111110999971 ], [ -56.948610980999945, -20.344166666999968 ], [ -56.946388752999951, -20.340833332999978 ], [ -56.943572931999938, -20.339871960999972 ], [ -56.944632816999956, -20.337777777999975 ], [ -56.94222207599995, -20.338611110999977 ], [ -56.939057514999945, -20.33699073899993 ], [ -56.939305139999931, -20.333888888999979 ], [ -56.936944284999981, -20.333055555999977 ], [ -56.934805907999987, -20.32892060699993 ], [ -56.936966568999935, -20.327330695999933 ], [ -56.935728630999961, -20.322753293999938 ], [ -56.928941738999981, -20.314020788999983 ], [ -56.931010304999973, -20.309709095999949 ], [ -56.938322238999945, -20.303347960999929 ], [ -56.93783069899996, -20.292909509999959 ], [ -56.94153529099998, -20.293803817999958 ], [ -56.947013035999987, -20.288758407999978 ], [ -56.947537399999987, -20.284616190999941 ], [ -56.944484125999963, -20.282272692999982 ], [ -56.947753601999977, -20.270804434999945 ], [ -56.949857160999954, -20.269838986999957 ], [ -56.949651809999978, -20.266392981999957 ], [ -56.948606879999943, -20.262491515999955 ], [ -56.940346315999932, -20.256405380999979 ], [ -56.943055410999932, -20.256566821999968 ], [ -56.94388874699996, -20.254166666999936 ], [ -56.946110974999954, -20.253888888999938 ], [ -56.948643094999966, -20.248570710999957 ], [ -56.947013035999987, -20.244987375999926 ], [ -56.948709555999983, -20.240908498999943 ], [ -56.94753400899998, -20.23318050599994 ], [ -56.951719697999977, -20.225131192999982 ], [ -56.952148303999934, -20.217297471999927 ], [ -56.955414795999957, -20.213126431999967 ], [ -56.960832454999945, -20.211627259999943 ], [ -56.96424041399996, -20.208207297999934 ], [ -56.963772202999962, -20.203155580999976 ], [ -56.966920691999974, -20.199135230999957 ], [ -56.970162769999945, -20.199395717999948 ], [ -56.970957724999948, -20.189328498999942 ], [ -56.974722157999963, -20.186944443999948 ], [ -56.976184681999939, -20.189435310999954 ], [ -56.979322456999967, -20.188113957999974 ], [ -56.980907212999966, -20.183762658999967 ], [ -56.980817151999986, -20.176170909999939 ], [ -56.962318742999969, -20.168333332999964 ], [ -56.960053097999946, -20.174431393999953 ], [ -56.956944334999946, -20.174181586999964 ], [ -56.95555544299998, -20.176111110999955 ], [ -56.949999872999967, -20.17777777799995 ], [ -56.947777644999974, -20.176944443999957 ], [ -56.946944309999935, -20.178611110999952 ], [ -56.943055410999932, -20.176537761999953 ], [ -56.940833182999938, -20.177222221999955 ], [ -56.935555391999969, -20.173888888999954 ], [ -56.93222205099994, -20.179722221999953 ], [ -56.927499815999965, -20.183611110999948 ], [ -56.924444252999933, -20.184722221999948 ], [ -56.921110910999971, -20.182777777999945 ], [ -56.918888682999977, -20.186944443999948 ], [ -56.914444227999979, -20.185277777999943 ], [ -56.916110898999932, -20.188888888999941 ], [ -56.914722005999977, -20.192777777999936 ], [ -56.907499765999944, -20.193888888999936 ], [ -56.906666429999973, -20.192718861999936 ], [ -56.898333075999972, -20.194722221999939 ], [ -56.896110847999978, -20.201666666999927 ], [ -56.897499739999944, -20.20472222199993 ], [ -56.896388625999975, -20.208055555999977 ], [ -56.889721942999984, -20.205 ], [ -56.888333049999972, -20.2075 ], [ -56.875277461999985, -20.205555555999979 ], [ -56.874885725999945, -20.210957834999931 ], [ -56.873055233999935, -20.213888888999975 ], [ -56.870876361999933, -20.21419041799993 ], [ -56.870607940999946, -20.216242232999946 ], [ -56.868055220999963, -20.21333333299998 ], [ -56.864721879999934, -20.213611110999977 ], [ -56.857499638999968, -20.209815892999927 ], [ -56.846415853999986, -20.208779878999962 ], [ -56.844295475999957, -20.20685793499996 ], [ -56.845277385999964, -20.202777777999927 ], [ -56.843610714999954, -20.201278584999955 ], [ -56.840823814999965, -20.203888888999927 ], [ -56.84036071099996, -20.206550653999955 ], [ -56.836944030999973, -20.206978026999934 ], [ -56.835277359999964, -20.210833332999982 ], [ -56.828610676999972, -20.211388888999977 ], [ -56.826110670999981, -20.209652511999934 ], [ -56.819999543999984, -20.209444443999928 ], [ -56.816666201999965, -20.210480849999954 ], [ -56.822221771999978, -20.214722221999978 ], [ -56.821666214999937, -20.220231733999981 ], [ -56.823055106999959, -20.221944443999973 ], [ -56.819443986999943, -20.225 ], [ -56.819166208999945, -20.228333332999966 ], [ -56.816110644999981, -20.230277777999959 ], [ -56.816110644999981, -20.233055555999954 ], [ -56.814443973999971, -20.234166666999954 ], [ -56.816388423999967, -20.239166666999949 ], [ -56.814999530999955, -20.2425 ], [ -56.804721727999947, -20.245 ], [ -56.799999492999973, -20.24916666699994 ], [ -56.796666151999943, -20.249722221999946 ], [ -56.792829543999972, -20.247909151999977 ], [ -56.792531147999966, -20.244338565999954 ], [ -56.782572300999959, -20.236499486999946 ], [ -56.778225884999983, -20.235190882999973 ], [ -56.776928513999962, -20.23 ], [ -56.774721651999982, -20.229226721999964 ], [ -56.772221644999945, -20.230555555999956 ], [ -56.766162664999968, -20.22591990799998 ], [ -56.760384217999956, -20.225812688999952 ], [ -56.758066490999965, -20.229832767999937 ], [ -56.755864188999965, -20.229318575999969 ], [ -56.751696675999938, -20.226366281999958 ], [ -56.748040911999965, -20.217690879999964 ], [ -56.735864029999959, -20.213762896999981 ], [ -56.729618726999945, -20.207613080999977 ], [ -56.729990637999947, -20.202983256999971 ], [ -56.72472152499995, -20.202777777999927 ], [ -56.717777062999971, -20.210555555999974 ], [ -56.715277055999934, -20.21111111099998 ], [ -56.713332606999984, -20.216944443999978 ], [ -56.706665923999935, -20.221666666999965 ], [ -56.701274855999941, -20.219722221999973 ], [ -56.69944368299997, -20.220555555999965 ], [ -56.696895974999961, -20.21333333299998 ], [ -56.692909723999946, -20.211388888999977 ], [ -56.684202376999963, -20.213520924999955 ], [ -56.682221416999937, -20.210833332999982 ], [ -56.680554745999984, -20.211666666999974 ], [ -56.677499182999952, -20.210277777999977 ], [ -56.675832511999943, -20.210277777999977 ], [ -56.674165840999933, -20.212777777999975 ], [ -56.670536089999985, -20.212044810999942 ], [ -56.671628716999976, -20.20583333299993 ], [ -56.66734609599996, -20.204596631999948 ], [ -56.667626724999934, -20.206853051999929 ], [ -56.662053627999967, -20.211862721999978 ], [ -56.658008456999937, -20.205362154999932 ], [ -56.657025918999977, -20.199709236999979 ], [ -56.662024194999958, -20.198780273999944 ], [ -56.662221366999972, -20.196313654999983 ], [ -56.659721359999935, -20.194444443999942 ], [ -56.658054688999982, -20.196944443999939 ], [ -56.652221340999972, -20.196944443999939 ], [ -56.649443555999937, -20.198611110999934 ], [ -56.649140655999986, -20.193958865999946 ], [ -56.644721321999953, -20.191111110999941 ], [ -56.644545279999932, -20.187777777999941 ], [ -56.640935973999945, -20.18739549999998 ], [ -56.637723558999937, -20.184444443999951 ], [ -56.633887960999971, -20.1875 ], [ -56.628054612999961, -20.184722221999948 ], [ -56.62388793599996, -20.188333332999946 ], [ -56.617499030999966, -20.189722221999943 ], [ -56.615276802999972, -20.193055555999933 ], [ -56.612499017999937, -20.1925 ], [ -56.604721220999977, -20.196944443999939 ], [ -56.601759509999965, -20.18666666699994 ], [ -56.598054536999939, -20.185277777999943 ], [ -56.596387865999986, -20.181666666999945 ], [ -56.594165638999982, -20.181944443999953 ], [ -56.592174870999941, -20.17763081399994 ], [ -56.593205287999979, -20.175877802999935 ], [ -56.591117461999943, -20.174205968999956 ], [ -56.591823847999933, -20.169313486999954 ], [ -56.590806550999957, -20.1675 ], [ -56.588610068999969, -20.1675 ], [ -56.582806034999976, -20.172318271999927 ], [ -56.580554492999966, -20.171985531999951 ], [ -56.580832270999963, -20.175277777999952 ], [ -56.578054486999974, -20.175555555999949 ], [ -56.574998922999953, -20.178333332999955 ], [ -56.574443365999969, -20.181666666999945 ], [ -56.575832258999981, -20.183055555999942 ], [ -56.573610030999987, -20.185277777999943 ], [ -56.573610030999987, -20.188333332999946 ], [ -56.56782775299996, -20.192353153999932 ], [ -56.554443315999947, -20.199166666999929 ], [ -56.542221062999943, -20.199444443999937 ], [ -56.540554391999933, -20.202777777999927 ], [ -56.535554378999962, -20.200833332999935 ], [ -56.534743426999967, -20.198611110999934 ], [ -56.530276587999936, -20.198333332999937 ], [ -56.529165473999967, -20.2 ], [ -56.522776568999973, -20.199166666999929 ], [ -56.513592784999958, -20.205614821999973 ], [ -56.494655751999971, -20.211301876999983 ], [ -56.486117442999955, -20.215356032999978 ], [ -56.467947520999985, -20.235576735999928 ], [ -56.46577369299996, -20.253746657999955 ], [ -56.461943080999959, -20.266083900999945 ], [ -56.468887542999937, -20.27 ], [ -56.471665327999972, -20.272777777999977 ], [ -56.471387549999974, -20.27472222199998 ], [ -56.475554226999975, -20.277222221999978 ], [ -56.477776454999969, -20.287222221999968 ], [ -56.481943131999969, -20.287777777999963 ], [ -56.483332023999935, -20.289722221999966 ], [ -56.49122381799998, -20.289762443999962 ], [ -56.492776492999951, -20.291111110999964 ], [ -56.49610983499997, -20.296944443999962 ], [ -56.494406622999975, -20.305866222999953 ], [ -56.504493915999944, -20.309576308999965 ], [ -56.504998745999956, -20.314425587999949 ], [ -56.508054308999931, -20.316666666999936 ], [ -56.508938394999973, -20.320687507999935 ], [ -56.515276549999953, -20.318055555999933 ], [ -56.523982053999987, -20.319449976999977 ], [ -56.539998834999949, -20.318333332999941 ], [ -56.544443289999947, -20.323333332999937 ], [ -56.54249884099994, -20.327808302999927 ], [ -56.544443289999947, -20.328333332999932 ], [ -56.544756415999984, -20.33098096599997 ], [ -56.549721081999962, -20.336388888999977 ], [ -56.549542920999954, -20.341388888999973 ], [ -56.552498865999951, -20.343055555999968 ], [ -56.557221100999982, -20.33722222199998 ], [ -56.562498891999951, -20.3375 ], [ -56.564998897999942, -20.341388888999973 ], [ -56.567776682999977, -20.341944443999978 ], [ -56.565276675999939, -20.345555555999965 ], [ -56.566943346999949, -20.346944443999973 ], [ -56.566110011999967, -20.35 ], [ -56.568332239999961, -20.353694596999958 ], [ -56.571587955999973, -20.352097331999971 ], [ -56.573887808999984, -20.353333332999966 ], [ -56.57527670199994, -20.362777777999952 ], [ -56.584998948999953, -20.3675 ], [ -56.584165612999982, -20.3725 ], [ -56.588610068999969, -20.376388888999941 ], [ -56.589998960999935, -20.379722221999941 ], [ -56.58527672699995, -20.378888888999938 ], [ -56.582498941999972, -20.381666666999934 ], [ -56.580317199999968, -20.381666666999934 ], [ -56.580832270999963, -20.385 ], [ -56.575832258999981, -20.388055555999927 ], [ -56.57527670199994, -20.393055555999979 ], [ -56.573610030999987, -20.393888888999982 ], [ -56.573054473999946, -20.396944443999928 ], [ -56.574443365999969, -20.399444443999982 ], [ -56.572498916999962, -20.404722221999975 ], [ -56.566943346999949, -20.408333332999973 ], [ -56.561943334999967, -20.40638888899997 ], [ -56.557221100999982, -20.410555555999963 ], [ -56.558054435999964, -20.411944443999971 ], [ -56.556464133999953, -20.413333332999969 ], [ -56.559817977999955, -20.41536464099994 ], [ -56.565306980999935, -20.433258662999947 ], [ -56.566956977999951, -20.434732877999977 ], [ -56.57495522399995, -20.432759662999956 ], [ -56.57615586299994, -20.439192412999944 ], [ -56.577567549999969, -20.439840339999932 ], [ -56.575731868999981, -20.44397855699998 ], [ -56.578215205999982, -20.447183063999944 ], [ -56.576454530999968, -20.461656241999947 ], [ -56.580058888999986, -20.460886242999948 ], [ -56.585322466999969, -20.467480398999953 ], [ -56.597010249999983, -20.469284204999951 ], [ -56.599261650999949, -20.471605186999966 ], [ -56.599723351999955, -20.474846721999938 ], [ -56.602987673999962, -20.477215718999958 ], [ -56.612712278999936, -20.475982120999959 ], [ -56.617565968999941, -20.477617604999978 ], [ -56.618265030999964, -20.481363022999972 ], [ -56.622338277999972, -20.483232476999945 ], [ -56.624700357999984, -20.491347097999949 ], [ -56.628872617999946, -20.497421771999939 ], [ -56.632232697999939, -20.500395563999973 ], [ -56.636203812999952, -20.495982279999964 ], [ -56.638822919999939, -20.503133893999973 ], [ -56.647272829999963, -20.505133421999972 ], [ -56.65112987599997, -20.510231253999962 ], [ -56.655291827999974, -20.511848562999944 ], [ -56.652583472999936, -20.51312678499994 ], [ -56.650868913999943, -20.518748709999954 ], [ -56.655873429999986, -20.527521837999927 ], [ -56.653516640999953, -20.529353177999951 ], [ -56.655139374999976, -20.533295537999948 ], [ -56.653910930999984, -20.536800340999946 ], [ -56.656462355999963, -20.54340127699993 ], [ -56.660066713999981, -20.546506499999964 ], [ -56.668604243999937, -20.549920426999961 ], [ -56.683669061999979, -20.549328651999929 ], [ -56.686905442999944, -20.547048631999928 ], [ -56.689217607999979, -20.548233943999946 ], [ -56.691399292999961, -20.542406395999933 ], [ -56.688410987999987, -20.538845712999944 ], [ -56.692828747999954, -20.536800340999946 ], [ -56.698297812999954, -20.543865147999952 ], [ -56.699004333999937, -20.548189319999949 ], [ -56.697508146999951, -20.552333639999972 ], [ -56.698698341999943, -20.555404410999927 ], [ -56.697571624999966, -20.55742374099998 ], [ -56.700396624999939, -20.579866139999979 ], [ -56.698085951999985, -20.580391181999971 ], [ -56.694238264999967, -20.586945324999931 ], [ -56.694852011999956, -20.589117922999947 ], [ -56.697503670999936, -20.590301199999942 ], [ -56.692488440999966, -20.603135232999932 ], [ -56.696817630999931, -20.609587920999957 ], [ -56.696884362999981, -20.613738615999978 ], [ -56.699587292999979, -20.618053970999938 ], [ -56.70616449299996, -20.62164910599995 ], [ -56.705806552999945, -20.626103893999982 ], [ -56.71282890699996, -20.631245536999927 ], [ -56.713307561999954, -20.633439971999962 ], [ -56.709749184999964, -20.637086918999955 ], [ -56.706229733999976, -20.659577874999968 ], [ -56.70478888599996, -20.662094713999977 ], [ -56.702398865999953, -20.662650815999939 ], [ -56.69855036499996, -20.669371653999974 ], [ -56.698925530999986, -20.675664157999961 ], [ -56.692312928999968, -20.688177548999931 ], [ -56.694952245999957, -20.695483922999927 ], [ -56.695375290999948, -20.702581960999964 ], [ -56.688927213999932, -20.703337310999927 ], [ -56.688095637999936, -20.707792640999969 ], [ -56.68454987399997, -20.710960797999974 ], [ -56.687813923999954, -20.722079592999933 ], [ -56.686414986999978, -20.725978278999946 ], [ -56.688596265999934, -20.727365550999934 ], [ -56.689480061999973, -20.731641029999935 ], [ -56.687626476999981, -20.735397434999982 ], [ -56.68520254799995, -20.733572061999951 ], [ -56.683149579999963, -20.734514316999935 ], [ -56.684855051999932, -20.737652768999965 ], [ -56.684233166999945, -20.740984229999981 ], [ -56.678610296999977, -20.742315323999946 ], [ -56.678610296999977, -20.74805555599994 ], [ -56.680912013999944, -20.754123304999951 ], [ -56.686943650999979, -20.759885744999963 ], [ -56.690297938999947, -20.759619632999943 ], [ -56.690554771999984, -20.7625 ], [ -56.686665872999981, -20.765760230999945 ], [ -56.692221442999937, -20.769722221999928 ], [ -56.691388106999966, -20.771111110999982 ], [ -56.688888100999975, -20.770833332999928 ], [ -56.684999201999972, -20.776111110999977 ], [ -56.684999201999972, -20.780833332999975 ], [ -56.687499207999963, -20.784444443999973 ], [ -56.685276979999969, -20.785 ], [ -56.682221416999937, -20.791111110999964 ], [ -56.679165853999962, -20.793611110999962 ], [ -56.67777696099995, -20.799722221999957 ], [ -56.683610309999949, -20.803333332999955 ], [ -56.684752511999932, -20.808212005999962 ], [ -56.695832562999954, -20.819444443999942 ], [ -56.696665897999935, -20.825555555999927 ], [ -56.692499220999935, -20.82861111099993 ], [ -56.691110328999969, -20.831687943999952 ], [ -56.696224363999931, -20.832407890999946 ], [ -56.700277017999952, -20.836944443999982 ], [ -56.698610347999931, -20.84166666699997 ], [ -56.701388131999977, -20.846111110999971 ], [ -56.697386648999952, -20.85 ], [ -56.69944368299997, -20.852084762999937 ], [ -56.703054802999986, -20.851666666999961 ], [ -56.711526365999987, -20.854444443999967 ], [ -56.717777062999971, -20.852222221999966 ], [ -56.724443745999963, -20.853888888999961 ], [ -56.72305485399994, -20.856944443999964 ], [ -56.721110404999934, -20.856944443999964 ], [ -56.719443733999981, -20.8625 ], [ -56.719721511999978, -20.87849476599996 ], [ -56.727777087999982, -20.884722221999937 ], [ -56.727777087999982, -20.896795870999938 ], [ -56.73222154399997, -20.899444443999982 ], [ -56.732777100999954, -20.906111110999973 ], [ -56.73222154399997, -20.910277777999966 ], [ -56.727777087999982, -20.917777777999959 ], [ -56.730277093999973, -20.925833332999957 ], [ -56.729443758999935, -20.93 ], [ -56.726943752999944, -20.931388888999948 ], [ -56.723610410999981, -20.942777777999936 ], [ -56.725277081999934, -20.947777777999931 ], [ -56.721943739999972, -20.948611110999934 ], [ -56.720832625999947, -20.951111110999932 ], [ -56.721943739999972, -20.958333332999928 ], [ -56.719165954999937, -20.96 ], [ -56.718610397999953, -20.966517058999955 ], [ -56.721985067999981, -20.968859985999927 ], [ -56.72033954699998, -20.973860025999954 ], [ -56.722221518999959, -20.978547124999977 ], [ -56.731521547999932, -20.978978610999945 ], [ -56.733453121999958, -20.975941476999935 ], [ -56.737777112999936, -20.975833332999969 ], [ -56.738824393999948, -20.977621584999952 ], [ -56.742777125999964, -20.975277777999963 ], [ -56.743509354999958, -20.977075790999947 ], [ -56.748054916999934, -20.978333332999966 ], [ -56.748652189999973, -20.986388888999954 ], [ -56.753332707999959, -20.992313002999936 ], [ -56.758888277999972, -20.994444443999953 ], [ -56.760277169999938, -20.999313926999946 ], [ -56.764924048999944, -21.000038077999932 ], [ -56.769029169999953, -21.003162559999964 ], [ -56.773259346999964, -21.000863821999928 ], [ -56.777221657999974, -21.000940667999942 ], [ -56.777499435999971, -20.99805555599994 ], [ -56.779467756999964, -20.996392079999964 ], [ -56.792829543999972, -20.993470641999977 ], [ -56.79654566499994, -20.98584783299998 ], [ -56.796259204999956, -20.978909029999954 ], [ -56.802028021999945, -20.971325419999971 ], [ -56.805444254999941, -20.971468106999964 ], [ -56.805526856999961, -20.968802341999947 ], [ -56.809496343999967, -20.966803763999962 ], [ -56.808741400999963, -20.96429614799996 ], [ -56.806666176999954, -20.964722221999978 ], [ -56.806507902999954, -20.96152363799996 ], [ -56.811712479999983, -20.95672148899996 ], [ -56.809794739999973, -20.953384195999945 ], [ -56.811135353999987, -20.948486153999966 ], [ -56.816110644999981, -20.950277777999929 ], [ -56.817221758999949, -20.953263077999964 ], [ -56.822250622999945, -20.954283047999979 ], [ -56.823494121999943, -20.950152561999971 ], [ -56.833825556999955, -20.943246989999977 ], [ -56.841388486999961, -20.949444443999937 ], [ -56.841996601999938, -20.946925132999979 ], [ -56.845277385999964, -20.947188752999978 ], [ -56.845277385999964, -20.945833332999939 ], [ -56.84724246199994, -20.945555555999931 ], [ -56.849721841999951, -20.939591680999968 ], [ -56.847632633999979, -20.935847163999938 ], [ -56.842221822999932, -20.933611110999948 ], [ -56.835832916999948, -20.926111110999955 ], [ -56.835300313999937, -20.922546818999933 ], [ -56.837516178999977, -20.920637759999977 ], [ -56.832829862999972, -20.912914445999945 ], [ -56.840274582999939, -20.911846185999934 ], [ -56.844444049999936, -20.916111110999964 ], [ -56.846110720999945, -20.920539577999932 ], [ -56.852221847999942, -20.919722221999962 ], [ -56.855832967999959, -20.923055555999952 ], [ -56.855277410999975, -20.925524738999968 ], [ -56.860607861999938, -20.926247884999952 ], [ -56.86552095899998, -20.920685774999981 ], [ -56.861917821999953, -20.916478248999965 ], [ -56.86586506499998, -20.914725711999949 ], [ -56.863684057999933, -20.910204327999963 ], [ -56.865716408999958, -20.905153152999958 ], [ -56.856102345999943, -20.895667671999945 ], [ -56.857704599999977, -20.893339500999957 ], [ -56.855350657999963, -20.889954871999976 ], [ -56.865176853999969, -20.888090028999954 ], [ -56.866307369999959, -20.879580846999943 ], [ -56.868792876999976, -20.876407128999972 ], [ -56.872274620999974, -20.876803046999953 ], [ -56.873123415999942, -20.871111110999948 ], [ -56.869444113999975, -20.87083333299995 ], [ -56.868730891999974, -20.866901980999955 ], [ -56.873317787999952, -20.86502465999996 ], [ -56.880052460999934, -20.854580647999967 ], [ -56.871078593999982, -20.848555751999982 ], [ -56.869721891999973, -20.840983172999927 ], [ -56.859166309999978, -20.834444443999928 ], [ -56.854234519999977, -20.825398150999945 ], [ -56.849126921999982, -20.819983068999932 ], [ -56.850286869999934, -20.817848312999956 ], [ -56.848645824999949, -20.817095133999942 ], [ -56.84888850599998, -20.812807432999932 ], [ -56.844111527999985, -20.804444443999955 ], [ -56.841425443999981, -20.803206947999968 ], [ -56.84042201799997, -20.798894575999952 ], [ -56.84367887999997, -20.79598466799996 ], [ -56.846070798999961, -20.79071010399997 ], [ -56.84525956799996, -20.789217307999934 ], [ -56.852336039999955, -20.780984548999982 ], [ -56.859166309999978, -20.784166666999965 ], [ -56.864810097999964, -20.780225400999939 ], [ -56.870070686999952, -20.781666666999968 ], [ -56.870066622999957, -20.775238653999963 ], [ -56.875607980999973, -20.766802170999938 ], [ -56.870236030999934, -20.758669510999937 ], [ -56.870560332999958, -20.756063017999963 ], [ -56.86751275599994, -20.750215396999977 ], [ -56.86583299299997, -20.749722221999946 ], [ -56.865472808999982, -20.745149030999983 ], [ -56.869108227999959, -20.743368689999954 ], [ -56.870648495999944, -20.739361360999965 ], [ -56.871388562999982, -20.726388888999963 ], [ -56.873878637999951, -20.71829728199998 ], [ -56.877251466999951, -20.713951544999929 ], [ -56.881169955999951, -20.71241927899996 ], [ -56.882562788999962, -20.702460702999929 ], [ -56.892634890999943, -20.691351944999951 ], [ -56.892609526999934, -20.687455022999927 ], [ -56.89052793999997, -20.687713949999932 ], [ -56.887583309999968, -20.68544559399993 ], [ -56.890901206999956, -20.682788508999977 ], [ -56.891476162999936, -20.678191846999937 ], [ -56.888672915999962, -20.670277777999956 ], [ -56.880833030999952, -20.668333332999964 ], [ -56.875705366999966, -20.664602871999932 ], [ -56.876055303999976, -20.660247096999967 ], [ -56.879139231999943, -20.658871081999962 ], [ -56.881821680999963, -20.651523475999966 ], [ -56.879310300999975, -20.6475 ], [ -56.874444125999958, -20.647777777999977 ], [ -56.86808730499996, -20.635432852999941 ], [ -56.867830140999956, -20.632912216999955 ], [ -56.87334776299997, -20.631160086999955 ], [ -56.874029920999931, -20.625277777999941 ], [ -56.871971205999955, -20.623215551999976 ], [ -56.870355795999956, -20.617053121999959 ], [ -56.866560328999981, -20.612749837999957 ], [ -56.867126332999987, -20.607197493999934 ], [ -56.872150243999954, -20.602392903999942 ], [ -56.870978359999981, -20.594780809999975 ], [ -56.877721170999962, -20.594936382999947 ], [ -56.881839719999959, -20.589143150999973 ], [ -56.88616362099998, -20.590134097999965 ], [ -56.888333049999972, -20.587369854999963 ], [ -56.884721929999955, -20.584293787999968 ], [ -56.87999969599997, -20.585833332999982 ], [ -56.875727333999976, -20.58194444399993 ], [ -56.868385700999966, -20.580134018999956 ], [ -56.87007747399997, -20.575643287999981 ], [ -56.875993318999974, -20.57070848799998 ] ], [ [ -56.816163062999976, -20.392910305999976 ], [ -56.815485702999979, -20.392720145999931 ], [ -56.815972902999931, -20.392232945999979 ], [ -56.816163062999976, -20.392910305999976 ] ] ] ] } },
{ "type": "Feature", "properties": { "nome_bacia": null, "area_ha": null }, "geometry": { "type": "MultiPolygon", "coordinates": [ [ [ [ -56.443054144999962, -20.375555555999938 ], [ -56.428577647999987, -20.378326491999928 ], [ -56.418868034999946, -20.386282521999931 ], [ -56.412002493999978, -20.389598865999972 ], [ -56.408643920999964, -20.389955984999972 ], [ -56.406491974999938, -20.38719744399998 ], [ -56.403142317999936, -20.387476187999937 ], [ -56.39942066499998, -20.394558425999946 ], [ -56.399338633999946, -20.397911452999949 ], [ -56.402992102999974, -20.400684268999953 ], [ -56.407102122999959, -20.408867751999935 ], [ -56.414156809999952, -20.414774001999945 ], [ -56.426871653999967, -20.435527907999926 ], [ -56.432388497999966, -20.441388888999938 ], [ -56.438887466999972, -20.443333332999941 ], [ -56.439165245999959, -20.446111110999936 ], [ -56.44333192299996, -20.449722221999934 ], [ -56.448887492999972, -20.451944443999935 ], [ -56.44916527099997, -20.455404098999963 ], [ -56.452536307999935, -20.455472923999935 ], [ -56.453636305999964, -20.452083004999963 ], [ -56.460554188999936, -20.45361111099993 ], [ -56.465276422999978, -20.457222221999928 ], [ -56.465554201999964, -20.459166666999977 ], [ -56.468887542999937, -20.458888888999979 ], [ -56.470831992999933, -20.463888888999975 ], [ -56.473609777999968, -20.465 ], [ -56.474165334999952, -20.466944443999978 ], [ -56.481387574999985, -20.46888888899997 ], [ -56.484777096999949, -20.472072041999979 ], [ -56.485321534999969, -20.475416523999968 ], [ -56.488332036999964, -20.478055555999958 ], [ -56.486943144999941, -20.484697464999954 ], [ -56.493061532999945, -20.488046696999959 ], [ -56.494998720999945, -20.491111110999952 ], [ -56.493332049999935, -20.495 ], [ -56.493887606999976, -20.499027207999973 ], [ -56.497498726999936, -20.504001895999977 ], [ -56.504052288999958, -20.503044103999969 ], [ -56.508332087999975, -20.51 ], [ -56.509165422999956, -20.516944443999932 ], [ -56.506665416999965, -20.521111110999982 ], [ -56.507220973999949, -20.524418656999956 ], [ -56.509443201999943, -20.526111110999977 ], [ -56.507776530999934, -20.529444443999978 ], [ -56.516109884999935, -20.535 ], [ -56.516109884999935, -20.537328946999935 ], [ -56.520276561999935, -20.541111110999964 ], [ -56.519443226999954, -20.543973785999981 ], [ -56.521387675999961, -20.546388888999957 ], [ -56.531665479999958, -20.552159237999945 ], [ -56.540276612999946, -20.554444443999955 ], [ -56.539443277999965, -20.55833333299995 ], [ -56.541387726999972, -20.5625 ], [ -56.541109948999974, -20.567428811999946 ], [ -56.548018838999951, -20.568084768999938 ], [ -56.550852248999945, -20.570303753999951 ], [ -56.555932312999971, -20.568438232999938 ], [ -56.560686311999973, -20.573380627999938 ], [ -56.564623923999932, -20.570296836999944 ], [ -56.567364966999946, -20.571658337999963 ], [ -56.570154566999975, -20.570101793999982 ], [ -56.571317499999964, -20.568751956999961 ], [ -56.56950799699996, -20.566199988999927 ], [ -56.569799746999934, -20.562569181999947 ], [ -56.57498058799996, -20.561769614999946 ], [ -56.581532952999964, -20.5675 ], [ -56.582808611999951, -20.564765243999943 ], [ -56.599721207999949, -20.566388888999938 ], [ -56.599998986999935, -20.570089724999946 ], [ -56.601943435999942, -20.571638595999957 ], [ -56.608333174999984, -20.571652641999947 ], [ -56.613572203999979, -20.576502261999963 ], [ -56.617967718999978, -20.574651118999952 ], [ -56.623332378999976, -20.578161585999965 ], [ -56.625051651999968, -20.573858197999982 ], [ -56.630445574999953, -20.575473743999964 ], [ -56.634443517999955, -20.58 ], [ -56.636387967999951, -20.584722221999982 ], [ -56.634443517999955, -20.586944443999982 ], [ -56.634443517999955, -20.5975 ], [ -56.636665745999949, -20.603055555999958 ], [ -56.635728580999967, -20.613055555999949 ], [ -56.637221302999933, -20.61638888899995 ], [ -56.634999074999939, -20.62 ], [ -56.636110188999965, -20.623424967999938 ], [ -56.639165752999986, -20.625833332999946 ], [ -56.639165752999986, -20.629310886999974 ], [ -56.643887986999971, -20.632777777999934 ], [ -56.644721321999953, -20.638333332999935 ], [ -56.644165764999968, -20.648055555999974 ], [ -56.637499081999977, -20.652069185999949 ], [ -56.637776859999974, -20.655 ], [ -56.634999074999939, -20.655 ], [ -56.629165726999986, -20.663055555999961 ], [ -56.632499068999948, -20.665555555999958 ], [ -56.629999062999957, -20.685 ], [ -56.631110176999982, -20.691111110999941 ], [ -56.629165726999986, -20.692777777999936 ], [ -56.629443505999973, -20.696944443999939 ], [ -56.636387967999951, -20.698888888999932 ], [ -56.642776872999946, -20.705277777999981 ], [ -56.639165752999986, -20.708333332999928 ], [ -56.640276865999965, -20.711944443999982 ], [ -56.636665745999949, -20.71888888899997 ], [ -56.636665745999949, -20.721944443999973 ], [ -56.63527057999994, -20.722222221999971 ], [ -56.634443517999955, -20.727742181999929 ], [ -56.637221302999933, -20.730851609999945 ], [ -56.644443543999955, -20.732777777999956 ], [ -56.652668244999973, -20.739259091999941 ], [ -56.664721372999963, -20.741944443999955 ], [ -56.665554707999945, -20.738333332999957 ], [ -56.668888049999964, -20.74027777799995 ], [ -56.669721385999935, -20.742792921999978 ], [ -56.684233166999945, -20.740984229999981 ], [ -56.684855051999932, -20.737652768999965 ], [ -56.683149579999963, -20.734514316999935 ], [ -56.68520254799995, -20.733572061999951 ], [ -56.687626476999981, -20.735397434999982 ], [ -56.689480061999973, -20.731641029999935 ], [ -56.688596265999934, -20.727365550999934 ], [ -56.686414986999978, -20.725978278999946 ], [ -56.687813923999954, -20.722079592999933 ], [ -56.68454987399997, -20.710960797999974 ], [ -56.688095637999936, -20.707792640999969 ], [ -56.688927213999932, -20.703337310999927 ], [ -56.695375290999948, -20.702581960999964 ], [ -56.694952245999957, -20.695483922999927 ], [ -56.692312928999968, -20.688177548999931 ], [ -56.698925530999986, -20.675664157999961 ], [ -56.69855036499996, -20.669371653999974 ], [ -56.702398865999953, -20.662650815999939 ], [ -56.70478888599996, -20.662094713999977 ], [ -56.706229733999976, -20.659577874999968 ], [ -56.709749184999964, -20.637086918999955 ], [ -56.713307561999954, -20.633439971999962 ], [ -56.71282890699996, -20.631245536999927 ], [ -56.705806552999945, -20.626103893999982 ], [ -56.70616449299996, -20.62164910599995 ], [ -56.699587292999979, -20.618053970999938 ], [ -56.696884362999981, -20.613738615999978 ], [ -56.696817630999931, -20.609587920999957 ], [ -56.692488440999966, -20.603135232999932 ], [ -56.697503670999936, -20.590301199999942 ], [ -56.694852011999956, -20.589117922999947 ], [ -56.694238264999967, -20.586945324999931 ], [ -56.698085951999985, -20.580391181999971 ], [ -56.700396624999939, -20.579866139999979 ], [ -56.697571624999966, -20.55742374099998 ], [ -56.698698341999943, -20.555404410999927 ], [ -56.697508146999951, -20.552333639999972 ], [ -56.699004333999937, -20.548189319999949 ], [ -56.698297812999954, -20.543865147999952 ], [ -56.692828747999954, -20.536800340999946 ], [ -56.688410987999987, -20.538845712999944 ], [ -56.691399292999961, -20.542406395999933 ], [ -56.690771846999951, -20.546430001999965 ], [ -56.689217607999979, -20.548233943999946 ], [ -56.686905442999944, -20.547048631999928 ], [ -56.683669061999979, -20.549328651999929 ], [ -56.668604243999937, -20.549920426999961 ], [ -56.660066713999981, -20.546506499999964 ], [ -56.656462355999963, -20.54340127699993 ], [ -56.653910930999984, -20.536800340999946 ], [ -56.655139374999976, -20.533295537999948 ], [ -56.653516640999953, -20.529353177999951 ], [ -56.655873429999986, -20.527521837999927 ], [ -56.650868913999943, -20.518748709999954 ], [ -56.652583472999936, -20.51312678499994 ], [ -56.655291827999974, -20.511848562999944 ], [ -56.65112987599997, -20.510231253999962 ], [ -56.647272829999963, -20.505133421999972 ], [ -56.638822919999939, -20.503133893999973 ], [ -56.636203812999952, -20.495982279999964 ], [ -56.632232697999939, -20.500395563999973 ], [ -56.628872617999946, -20.497421771999939 ], [ -56.624700357999984, -20.491347097999949 ], [ -56.622338277999972, -20.483232476999945 ], [ -56.618265030999964, -20.481363022999972 ], [ -56.617565968999941, -20.477617604999978 ], [ -56.612712278999936, -20.475982120999959 ], [ -56.602987673999962, -20.477215718999958 ], [ -56.599723351999955, -20.474846721999938 ], [ -56.599261650999949, -20.471605186999966 ], [ -56.597010249999983, -20.469284204999951 ], [ -56.585322466999969, -20.467480398999953 ], [ -56.580058888999986, -20.460886242999948 ], [ -56.576454530999968, -20.461656241999947 ], [ -56.578215205999982, -20.447183063999944 ], [ -56.575731868999981, -20.44397855699998 ], [ -56.577567549999969, -20.439840339999932 ], [ -56.57615586299994, -20.439192412999944 ], [ -56.57495522399995, -20.432759662999956 ], [ -56.566956977999951, -20.434732877999977 ], [ -56.565306980999935, -20.433258662999947 ], [ -56.559817977999955, -20.41536463999995 ], [ -56.556464134999942, -20.413333332999969 ], [ -56.551943308999967, -20.4125 ], [ -56.549443302999975, -20.416388888999961 ], [ -56.545832182999959, -20.416944443999967 ], [ -56.539721055999962, -20.411825792999934 ], [ -56.532062900999961, -20.412572055999931 ], [ -56.528323766999961, -20.4075 ], [ -56.521005277999961, -20.40229785899993 ], [ -56.516996863999964, -20.386958516999982 ], [ -56.506943194999963, -20.387222221999934 ], [ -56.503202107999982, -20.3825 ], [ -56.493655345999969, -20.383909743999936 ], [ -56.485072825999964, -20.381797439999957 ], [ -56.448887492999972, -20.383055555999931 ], [ -56.442776365999975, -20.3775 ], [ -56.443054144999962, -20.375555555999938 ] ] ] ] } }
]
}
