{
  "type": "FeatureCollection",
  "name": "pontos_apoio_fiscalizacao",
  "xy_coordinate_resolution": 1e-05,
  "features": [
    {
      "type": "Feature",
      "properties": {
        "nome": "Pelotão da Polícia Militar Ambiental de Miranda",
        "categoria": "Posto PMA (Lacre GCP)",
        "subtitulo": "Fiscalização, Lacre de Pescado e Emissão de GCP",
        "telefone": "(67) 3242-4344",
        "email": "ambientalpantanal@hotmail.com",
        "endereco": "BR-262, km 565, Miranda - MS",
        "info": "Posto oficial para emissão da Guia de Controle de Pescado (GCP) e lacre antes de transitar em rodovias.",
        "fonte": "Cartilha do Pescador 2023, pág. 23",
        "id_infra": 501,
        "tipo": "PMA",
        "possui_rampa": 0,
        "telefone_emergencia": "(67) 3242-4344",
        "servico": "Fiscalização, Lacre de Pescado e Emissão de GCP"
      },
      "geometry": {
        "type": "Point",
        "coordinates": [
          -56.382,
          -20.2415
        ]
      }
    },
    {
      "type": "Feature",
      "properties": {
        "nome": "Posto 24h Buraco das Piranhas (PMA)",
        "categoria": "Posto PMA (Lacre GCP)",
        "subtitulo": "Fiscalização Rodoviária 24h e Vistoria de Cota",
        "telefone": "(67) 3231-4444",
        "email": "pma_ms@yahoo.com.br",
        "endereco": "Trevo da BR-262 com MS-184 (Estrada Parque Pantanal)",
        "info": "Posto estratégico 24h na entrada da Estrada Parque. Vistoria obrigatória de cota e documentação.",
        "fonte": "Cartilha do Pescador 2023, pág. 22",
        "id_infra": 502,
        "tipo": "PMA",
        "possui_rampa": 0,
        "telefone_emergencia": "(67) 3231-4444",
        "servico": "Fiscalização Rodoviária 24h e Vistoria de Cota"
      },
      "geometry": {
        "type": "Point",
        "coordinates": [
          -56.96,
          -19.64
        ]
      }
    },
    {
      "type": "Feature",
      "properties": {
        "nome": "Posto Operacional PMA Passo do Lontra",
        "categoria": "Posto PMA (Lacre GCP)",
        "subtitulo": "Fiscalização Fluvial e Informações",
        "telefone": "(67) 3242-4344",
        "email": "ambientalpantanal@hotmail.com",
        "endereco": "MS-184 junto à ponte de madeira sobre o Rio Miranda",
        "info": "Base de apoio fluvial no coração do Pantanal. Acesso ao Rio Miranda e Rio Vermelho.",
        "fonte": "Cartilha do Pescador 2023, pág. 22",
        "id_infra": 503,
        "tipo": "PMA",
        "possui_rampa": 1,
        "telefone_emergencia": "(67) 3242-4344",
        "servico": "Fiscalização Fluvial e Informações"
      },
      "geometry": {
        "type": "Point",
        "coordinates": [
          -57.009,
          -19.575
        ]
      }
    },
    {
      "type": "Feature",
      "properties": {
        "nome": "Pelotão da Polícia Militar Ambiental de Aquidauana",
        "categoria": "Posto PMA (Lacre GCP)",
        "subtitulo": "Fiscalização, Lacre de Pescado e Emissão de GCP",
        "telefone": "(67) 3904-2070",
        "email": "2cia15bpma@gmail.com",
        "endereco": "BR-262, Aquidauana - MS",
        "info": "Posto de atendimento aos pescadores da Bacia do Rio Aquidauana.",
        "fonte": "Cartilha do Pescador 2023, pág. 22",
        "id_infra": 504,
        "tipo": "PMA",
        "possui_rampa": 0,
        "telefone_emergencia": "(67) 3904-2070",
        "servico": "Fiscalização, Lacre de Pescado e Emissão de GCP"
      },
      "geometry": {
        "type": "Point",
        "coordinates": [
          -55.787,
          -20.471
        ]
      }
    },
    {
      "type": "Feature",
      "properties": {
        "nome": "Grupo PMA - BR-262 km 482 (Anastácio)",
        "categoria": "Posto PMA (Lacre GCP)",
        "subtitulo": "Posto de Fiscalização Rodoviária",
        "telefone": "(67) 3904-2070",
        "email": "ppma_aquidauana@yahoo.com.br",
        "endereco": "BR-262, km 482, Anastácio - MS",
        "info": "Posto de vistoria rodoviária no entroncamento Anastácio/Aquidauana.",
        "fonte": "Cartilha do Pescador 2023, pág. 22",
        "id_infra": 505,
        "tipo": "PMA",
        "possui_rampa": 0,
        "telefone_emergencia": "(67) 3904-2070",
        "servico": "Posto de Fiscalização Rodoviária"
      },
      "geometry": {
        "type": "Point",
        "coordinates": [
          -55.808,
          -20.485
        ]
      }
    },
    {
      "type": "Feature",
      "properties": {
        "nome": "1ª Companhia da PMA de Corumbá",
        "categoria": "Posto PMA (Lacre GCP)",
        "subtitulo": "Sede Regional Pantanal / Porto Geral",
        "telefone": "(67) 3907-5461",
        "email": "pma_ms@yahoo.com.br",
        "endereco": "Av. General Rondon, Centro, Corumbá - MS",
        "info": "Base principal de fiscalização no Rio Paraguai e Pantanal do Paiaguás/Nhecolândia.",
        "fonte": "Cartilha do Pescador 2023, pág. 22",
        "id_infra": 506,
        "tipo": "PMA",
        "possui_rampa": 0,
        "telefone_emergencia": "(67) 3907-5461",
        "servico": "Sede Regional Pantanal / Porto Geral"
      },
      "geometry": {
        "type": "Point",
        "coordinates": [
          -57.653,
          -19.006
        ]
      }
    },
    {
      "type": "Feature",
      "properties": {
        "nome": "4ª Companhia da PMA de Bonito",
        "categoria": "Posto PMA (Lacre GCP)",
        "subtitulo": "Fiscalização e Controle Ambiental",
        "telefone": "(67) 3255-1247",
        "email": "bonito4ciapma@hotmail.com",
        "endereco": "MS-178, Bonito - MS",
        "info": "Atendimento e fiscalização dos rios cênicos da Serra da Bodoquena.",
        "fonte": "Cartilha do Pescador 2023, pág. 22",
        "id_infra": 507,
        "tipo": "PMA",
        "possui_rampa": 0,
        "telefone_emergencia": "(67) 3255-1247",
        "servico": "Fiscalização e Controle Ambiental"
      },
      "geometry": {
        "type": "Point",
        "coordinates": [
          -56.483,
          -21.126
        ]
      }
    },
    {
      "type": "Feature",
      "properties": {
        "nome": "Grupo PMA - Km 21 (Bonito)",
        "categoria": "Posto PMA (Lacre GCP)",
        "subtitulo": "Posto de Fiscalização Rodoviária e Rios Cênicos",
        "telefone": "(67) 3255-4961",
        "email": "gpmakm21bonito@yahoo.com.br",
        "endereco": "Rodovia Bonito-Bodoquena (MS-178), km 21",
        "info": "Posto de controle para fiscalização dos Rios Formoso, Peixe e Salobra.",
        "fonte": "Cartilha do Pescador 2023, pág. 23",
        "id_infra": 508,
        "tipo": "PMA",
        "possui_rampa": 0,
        "telefone_emergencia": "(67) 3255-4961",
        "servico": "Posto de Fiscalização Rodoviária e Rios Cênicos"
      },
      "geometry": {
        "type": "Point",
        "coordinates": [
          -56.55,
          -21.05
        ]
      }
    },
    {
      "type": "Feature",
      "properties": {
        "nome": "Pelotão da PMA de Jardim",
        "categoria": "Posto PMA (Lacre GCP)",
        "subtitulo": "Fiscalização e Atendimento",
        "telefone": "(67) 3251-2043",
        "email": "pmajardim@hotmail.com",
        "endereco": "Av. Duque de Caxias, Jardim - MS",
        "info": "Posto de controle para rios da bacia do Miranda e Rio da Prata.",
        "fonte": "Cartilha do Pescador 2023, pág. 23",
        "id_infra": 509,
        "tipo": "PMA",
        "possui_rampa": 0,
        "telefone_emergencia": "(67) 3251-2043",
        "servico": "Fiscalização e Atendimento"
      },
      "geometry": {
        "type": "Point",
        "coordinates": [
          -56.143,
          -21.48
        ]
      }
    },
    {
      "type": "Feature",
      "properties": {
        "nome": "Pelotão da PMA de Porto Murtinho",
        "categoria": "Posto PMA (Lacre GCP)",
        "subtitulo": "Fiscalização Calha do Rio Paraguai e Rio Apa",
        "telefone": "(67) 3287-1360",
        "email": "pmapmurtinho@yahoo.com.br",
        "endereco": "Rua 13 de Maio, Porto Murtinho - MS",
        "info": "Controle de pesca transfronteiriça no Rio Paraguai e Rio Apa.",
        "fonte": "Cartilha do Pescador 2023, pág. 23",
        "id_infra": 510,
        "tipo": "PMA",
        "possui_rampa": 0,
        "telefone_emergencia": "(67) 3287-1360",
        "servico": "Fiscalização Calha do Rio Paraguai e Rio Apa"
      },
      "geometry": {
        "type": "Point",
        "coordinates": [
          -57.883,
          -21.698
        ]
      }
    },
    {
      "type": "Feature",
      "properties": {
        "nome": "Posto PMA de Rio Negro",
        "categoria": "Posto PMA (Lacre GCP)",
        "subtitulo": "Fiscalização da Bacia do Rio Negro",
        "telefone": "(67) 3357-1500",
        "email": "pmarionegroms@gmail.com",
        "endereco": "Rio Negro - MS",
        "info": "Posto de apoio à bacia e trecho de Pesque e Solte do Rio Negro.",
        "fonte": "Cartilha do Pescador 2023, pág. 23",
        "id_infra": 511,
        "tipo": "PMA",
        "possui_rampa": 0,
        "telefone_emergencia": "(67) 3357-1500",
        "servico": "Fiscalização da Bacia do Rio Negro"
      },
      "geometry": {
        "type": "Point",
        "coordinates": [
          -54.985,
          -19.445
        ]
      }
    },
    {
      "type": "Feature",
      "properties": {
        "nome": "Ponte Velha de Miranda (Marco de Defeso)",
        "categoria": "Marco Normativo",
        "subtitulo": "Divisor de Período de Piracema (Defeso Prolongado)",
        "telefone": null,
        "email": null,
        "endereco": "Rio Miranda, acesso urbano para Bodoquena, Miranda - MS",
        "info": "MARCO LEGAL: Acima (a montante) desta ponte, a proibição de pesca permanece por período mais longo no Rio Miranda e afluentes (Cartilha do Pescador 2023, pág. 11).",
        "fonte": "Cartilha do Pescador 2023, pág. 11 / Decreto Estadual",
        "id_infra": 512,
        "tipo": "Marco Normativo",
        "possui_rampa": 0,
        "telefone_emergencia": null,
        "servico": "Divisor de Período de Piracema (Defeso Prolongado)"
      },
      "geometry": {
        "type": "Point",
        "coordinates": [
          -56.3685,
          -20.2355
        ]
      }
    },
    {
      "type": "Feature",
      "properties": {
        "nome": "Ponte Velha de Aquidauana / Anastácio (Marco de Defeso)",
        "categoria": "Marco Normativo",
        "subtitulo": "Divisor de Período de Piracema (Defeso Prolongado)",
        "telefone": null,
        "email": null,
        "endereco": "Ponte Roldão de Oliveira sobre o Rio Aquidauana (liga Aquidauana a Anastácio)",
        "info": "MARCO LEGAL: Acima (a montante) desta ponte, a proibição de pesca permanece por período mais longo no Rio Aquidauana e afluentes (Cartilha do Pescador 2023, pág. 11).",
        "fonte": "Cartilha do Pescador 2023, pág. 11 / Decreto Estadual",
        "id_infra": 513,
        "tipo": "Marco Normativo",
        "possui_rampa": 0,
        "telefone_emergencia": null,
        "servico": "Divisor de Período de Piracema (Defeso Prolongado)"
      },
      "geometry": {
        "type": "Point",
        "coordinates": [
          -55.7885,
          -20.4715
        ]
      }
    },
    {
      "type": "Feature",
      "properties": {
        "nome": "Porto Geral e Rampa Municipal de Miranda",
        "categoria": "Rampa Náutica / Porto",
        "subtitulo": "Rampa Pública de Concreto - Rio Miranda",
        "telefone": null,
        "email": null,
        "endereco": "Margem Urbana do Rio Miranda, Miranda - MS",
        "info": "Rampa pública de concreto para descida de barcos no Rio Miranda. Livre acesso para embarque e desembarque.",
        "fonte": "OpenStreetMap / Prefeitura de Miranda",
        "id_infra": 514,
        "tipo": "Rampa",
        "possui_rampa": 1,
        "telefone_emergencia": null,
        "servico": "Rampa Pública de Concreto - Rio Miranda"
      },
      "geometry": {
        "type": "Point",
        "coordinates": [
          -56.368,
          -20.235
        ]
      }
    },
    {
      "type": "Feature",
      "properties": {
        "nome": "Rampa Pública do Passo do Lontra",
        "categoria": "Rampa Náutica / Porto",
        "subtitulo": "Rampa Fluvial - Estrada Parque Pantanal",
        "telefone": null,
        "email": null,
        "endereco": "MS-184 junto à ponte de madeira sobre o Rio Miranda",
        "info": "Ponto tradicional de descida de barcos no Passo do Lontra. Acesso direto ao Rio Miranda e encontro com o Rio Vermelho.",
        "fonte": "OpenStreetMap / Estrada Parque",
        "id_infra": 515,
        "tipo": "Rampa",
        "possui_rampa": 1,
        "telefone_emergencia": null,
        "servico": "Rampa Fluvial - Estrada Parque Pantanal"
      },
      "geometry": {
        "type": "Point",
        "coordinates": [
          -57.01,
          -19.574
        ]
      }
    },
    {
      "type": "Feature",
      "properties": {
        "nome": "Porto Geral de Corumbá",
        "categoria": "Rampa Náutica / Porto",
        "subtitulo": "Porto Fluvial Histórico e Rampa - Rio Paraguai",
        "telefone": null,
        "email": null,
        "endereco": "Orla do Rio Paraguai, Centro, Corumbá - MS",
        "info": "Principal atracadouro de barcos-hotel, barcos de pesca esportiva e rampa pública no Rio Paraguai.",
        "fonte": "OpenStreetMap / Capitania Fluvial do Pantanal",
        "id_infra": 516,
        "tipo": "Rampa",
        "possui_rampa": 1,
        "telefone_emergencia": null,
        "servico": "Porto Fluvial Histórico e Rampa - Rio Paraguai"
      },
      "geometry": {
        "type": "Point",
        "coordinates": [
          -57.652,
          -19.004
        ]
      }
    },
    {
      "type": "Feature",
      "properties": {
        "nome": "Porto Morrinho (Ponte sobre o Rio Paraguai)",
        "categoria": "Rampa Náutica / Porto",
        "subtitulo": "Acesso Náutico e Apoio - Rio Paraguai / BR-262",
        "telefone": null,
        "email": null,
        "endereco": "BR-262 junto à Ponte sobre o Rio Paraguai, Corumbá - MS",
        "info": "Ponto de apoio com postos de abastecimento náutico e rampa de acesso à calha do Rio Paraguai.",
        "fonte": "OpenStreetMap / Vistoria Satélite",
        "id_infra": 517,
        "tipo": "Rampa",
        "possui_rampa": 1,
        "telefone_emergencia": null,
        "servico": "Acesso Náutico e Apoio - Rio Paraguai / BR-262"
      },
      "geometry": {
        "type": "Point",
        "coordinates": [
          -57.362,
          -19.585
        ]
      }
    },
    {
      "type": "Feature",
      "properties": {
        "nome": "Rampa e Balneário de Piraputanga",
        "categoria": "Rampa Náutica / Porto",
        "subtitulo": "Acesso Fluvial ao Rio Aquidauana",
        "telefone": null,
        "email": null,
        "endereco": "Distrito de Piraputanga, Aquidauana - MS",
        "info": "Ponto de acesso ao Rio Aquidauana para pesca e canoagem na Estrada Parque de Piraputanga.",
        "fonte": "OpenStreetMap / Estrada Parque",
        "id_infra": 518,
        "tipo": "Rampa",
        "possui_rampa": 1,
        "telefone_emergencia": null,
        "servico": "Acesso Fluvial ao Rio Aquidauana"
      },
      "geometry": {
        "type": "Point",
        "coordinates": [
          -55.516,
          -20.457
        ]
      }
    },
    {
      "type": "Feature",
      "properties": {
        "nome": "Rampa de Camisão",
        "categoria": "Rampa Náutica / Porto",
        "subtitulo": "Acesso Náutico ao Rio Aquidauana",
        "telefone": null,
        "email": null,
        "endereco": "Distrito de Camisão, Aquidauana - MS",
        "info": "Rampa de acesso ao Rio Aquidauana próxima aos pesqueiros e pousadas de Camisão.",
        "fonte": "OpenStreetMap",
        "id_infra": 519,
        "tipo": "Rampa",
        "possui_rampa": 1,
        "telefone_emergencia": null,
        "servico": "Acesso Náutico ao Rio Aquidauana"
      },
      "geometry": {
        "type": "Point",
        "coordinates": [
          -55.618,
          -20.478
        ]
      }
    },
    {
      "type": "Feature",
      "properties": {
        "nome": "Corpo de Bombeiros Militar de Miranda",
        "categoria": "Resgate e Emergência",
        "subtitulo": "Emergência 193 e Resgate Fluvial",
        "telefone": "193 / (67) 3242-1200",
        "email": null,
        "endereco": "Rua Barão do Rio Branco, Miranda - MS",
        "info": "Equipe de resgate e socorro de acidentes na BR-262 e operações fluviais na bacia.",
        "fonte": "Corpo de Bombeiros Militar MS",
        "id_infra": 520,
        "tipo": "Bombeiros",
        "possui_rampa": 0,
        "telefone_emergencia": "193 / (67) 3242-1200",
        "servico": "Emergência 193 e Resgate Fluvial"
      },
      "geometry": {
        "type": "Point",
        "coordinates": [
          -56.377,
          -20.243
        ]
      }
    },
    {
      "type": "Feature",
      "properties": {
        "nome": "Corpo de Bombeiros Militar de Aquidauana",
        "categoria": "Resgate e Emergência",
        "subtitulo": "Emergência 193 e Busca Fluvial",
        "telefone": "193 / (67) 3241-2100",
        "email": null,
        "endereco": "Rua Pandiá Calógeras, Aquidauana - MS",
        "info": "Atendimento de emergência, socorro náutico e busca e salvamento.",
        "fonte": "Corpo de Bombeiros Militar MS",
        "id_infra": 521,
        "tipo": "Bombeiros",
        "possui_rampa": 0,
        "telefone_emergencia": "193 / (67) 3241-2100",
        "servico": "Emergência 193 e Busca Fluvial"
      },
      "geometry": {
        "type": "Point",
        "coordinates": [
          -55.79,
          -20.468
        ]
      }
    },
    {
      "type": "Feature",
      "properties": {
        "nome": "Corpo de Bombeiros Militar de Corumbá (3º GB)",
        "categoria": "Resgate e Emergência",
        "subtitulo": "Emergência 193 - Batalhão Pantanal",
        "telefone": "193 / (67) 3231-2100",
        "email": null,
        "endereco": "Av. Rio Branco, Corumbá - MS",
        "info": "Batalhão de salvamento aquático e terrestre no Pantanal de Corumbá.",
        "fonte": "Corpo de Bombeiros Militar MS",
        "id_infra": 522,
        "tipo": "Bombeiros",
        "possui_rampa": 0,
        "telefone_emergencia": "193 / (67) 3231-2100",
        "servico": "Emergência 193 - Batalhão Pantanal"
      },
      "geometry": {
        "type": "Point",
        "coordinates": [
          -57.65,
          -19.01
        ]
      }
    },
    {
      "type": "Feature",
      "properties": {
        "nome": "Hospital Municipal Renato Albuquerque Filho (Miranda)",
        "categoria": "Resgate e Emergência",
        "subtitulo": "Pronto Atendimento Médico 24h",
        "telefone": "(67) 3242-1222",
        "email": null,
        "endereco": "Rua Elias Rezek, Centro, Miranda - MS",
        "info": "Pronto atendimento hospitalar 24h de referência para a bacia do Miranda.",
        "fonte": "Cadastro Nacional de Estabelecimentos de Saúde (CNES)",
        "id_infra": 523,
        "tipo": "Hospital",
        "possui_rampa": 0,
        "telefone_emergencia": "(67) 3242-1222",
        "servico": "Pronto Atendimento Médico 24h"
      },
      "geometry": {
        "type": "Point",
        "coordinates": [
          -56.379,
          -20.239
        ]
      }
    },
    {
      "type": "Feature",
      "properties": {
        "nome": "Hospital Regional Dr. Estácio Muniz (Aquidauana)",
        "categoria": "Resgate e Emergência",
        "subtitulo": "Pronto Socorro Regional 24h",
        "telefone": "(67) 3904-2100",
        "email": null,
        "endereco": "Rua Teodoro Rondon, Centro, Aquidauana - MS",
        "info": "Hospital regional de alta e média complexidade.",
        "fonte": "Cadastro Nacional de Estabelecimentos de Saúde (CNES)",
        "id_infra": 524,
        "tipo": "Hospital",
        "possui_rampa": 0,
        "telefone_emergencia": "(67) 3904-2100",
        "servico": "Pronto Socorro Regional 24h"
      },
      "geometry": {
        "type": "Point",
        "coordinates": [
          -55.792,
          -20.465
        ]
      }
    }
  ]
}