{
  "type": "FeatureCollection",
  "features": [
    {
      "type": "Feature",
      "geometry": {
        "type": "Point",
        "coordinates": [
          -57.0142,
          -19.5823
        ]
      },
      "properties": {
        "id_guia": 1,
        "nome_operacional": "[Demonstrativo] Piloteiro Passo do Lontra",
        "nome_completo": "Vaga Comunitária Aberta - Condutor Local",
        "colonia": "Colônia Z-1 (Miranda / Corumbá)",
        "porto_base": "Passo do Lontra & Foz do Rio Vermelho",
        "municipio": "Corumbá / Miranda",
        "contato_wa": null,
        "demonstrativo": true,
        "homologado": false,
        "status_homologacao": "Vaga Aberta (Cadastro Comunitário)",
        "tipo_barco": "Bote de Alumínio 6m / Motor 25HP",
        "especialidade": "Pesca esportiva com devolução no Rio Vermelho e calha do Rio Miranda",
        "trecho_ids": [101, 104],
        "rios_atendidos": [
          "Rio Miranda (Calha Principal)",
          "Rio Vermelho (Passo do Lontra)"
        ],
        "status": 0,
        "credenciado": false
      }
    },
    {
      "type": "Feature",
      "geometry": {
        "type": "Point",
        "coordinates": [
          -56.3768,
          -20.2392
        ]
      },
      "properties": {
        "id_guia": 2,
        "nome_operacional": "[Demonstrativo] Piloteiro Miranda Porto Geral",
        "nome_completo": "Vaga Comunitária Aberta - Condutor Local",
        "colonia": "Colônia Z-1 (Miranda)",
        "porto_base": "Miranda - Porto Geral",
        "municipio": "Miranda",
        "contato_wa": null,
        "demonstrativo": true,
        "homologado": false,
        "status_homologacao": "Vaga Aberta (Cadastro Comunitário)",
        "tipo_barco": "Barco Pantaneiro 6m / Motor 30HP",
        "especialidade": "Pesca na batida de Pacu e poitas tradicionais do Rio Miranda",
        "trecho_ids": [101],
        "rios_atendidos": [
          "Rio Miranda (Calha Principal)"
        ],
        "status": 0,
        "credenciado": false
      }
    },
    {
      "type": "Feature",
      "geometry": {
        "type": "Point",
        "coordinates": [
          -56.0945,
          -20.7321
        ]
      },
      "properties": {
        "id_guia": 3,
        "nome_operacional": "[Demonstrativo] Piloteiro Águas do Miranda",
        "nome_completo": "Vaga Comunitária Aberta - Condutor Local",
        "colonia": "Colônia Z-11 (Bonito / Bodoquena)",
        "porto_base": "Distrito de Águas do Miranda / Rio Salobra",
        "municipio": "Bonito / Bodoquena",
        "contato_wa": null,
        "demonstrativo": true,
        "homologado": false,
        "status_homologacao": "Vaga Aberta (Cadastro Comunitário)",
        "tipo_barco": "Bote de Alumínio 6m / Motor 15HP + Elétrico",
        "especialidade": "Pesque e Solte em águas cristalinas e ecoturismo de observação",
        "trecho_ids": [101, 102],
        "rios_atendidos": [
          "Rio Miranda (Calha Principal)",
          "Rio Salobra"
        ],
        "status": 0,
        "credenciado": false
      }
    },
    {
      "type": "Feature",
      "geometry": {
        "type": "Point",
        "coordinates": [
          -55.6312,
          -20.4851
        ]
      },
      "properties": {
        "id_guia": 4,
        "nome_operacional": "[Demonstrativo] Piloteiro Camisão & Piraputanga",
        "nome_completo": "Vaga Comunitária Aberta - Condutor Local",
        "colonia": "Colônia Z-7 (Aquidauana)",
        "porto_base": "Porto de Camisão & Piraputanga",
        "municipio": "Aquidauana",
        "contato_wa": null,
        "demonstrativo": true,
        "homologado": false,
        "status_homologacao": "Vaga Aberta (Cadastro Comunitário)",
        "tipo_barco": "Chata Pantaneira 6m / Motor 25HP",
        "especialidade": "Rodada de peixe de couro e navegação nos pedrais do Rio Aquidauana",
        "trecho_ids": [103],
        "rios_atendidos": [
          "Rio Aquidauana"
        ],
        "status": 0,
        "credenciado": false
      }
    },
    {
      "type": "Feature",
      "geometry": {
        "type": "Point",
        "coordinates": [
          -56.2415,
          -19.5528
        ]
      },
      "properties": {
        "id_guia": 5,
        "nome_operacional": "[Demonstrativo] Piloteiro Rio Negro Pantaneiro",
        "nome_completo": "Vaga Comunitária Aberta - Condutor Local",
        "colonia": "Colônia Z-1 (Miranda / Rio Negro)",
        "porto_base": "Foz do Rio Negro & Rio Miranda",
        "municipio": "Aquidauana / Corumbá",
        "contato_wa": null,
        "demonstrativo": true,
        "homologado": false,
        "status_homologacao": "Vaga Aberta (Cadastro Comunitário)",
        "tipo_barco": "Bote de Alumínio c/ Motor 15HP 4T Silencioso",
        "especialidade": "Pesque e Solte esportivo em meandros preservados do Rio Negro",
        "trecho_ids": [105],
        "rios_atendidos": [
          "Rio Negro (Pantanal)",
          "Rio Miranda"
        ],
        "status": 0,
        "credenciado": false
      }
    }
  ]
}