{
"type": "FeatureCollection",
"name": "pontos_emergencia",
"xy_coordinate_resolution": 1e-05,
"features": [
{ "type": "Feature", "properties": { "nome": "Posto 24h Buraco das Piranhas (PMA)", "categoria": "Posto PMA (Lacre GCP)", "subtitulo": "Fiscalização Rodoviária 24h e Vistoria de Cota", "telefone": "(67) 3231-4444", "email": "pma_ms@yahoo.com.br", "endereco": "Trevo da BR-262 com MS-184 (Estrada Parque Pantanal)", "info": "Posto estratégico 24h no entroncamento da BR-262 com MS-184. Vistoria obrigatória de cota e documentação.", "fonte": "Cartilha PMA 2023 / Entroncamento Rodoviário Georreferenciado", "tipo": "PMA", "possui_rampa": 0, "telefone_emergencia": "(67) 3231-4444", "servico": "Fiscalização Rodoviária 24h e Vistoria de Cota", "id_infra": 501 }, "geometry": { "type": "Point", "coordinates": [ -57.0268, -19.64915 ] } },
{ "type": "Feature", "properties": { "nome": "Posto Operacional PMA Passo do Lontra", "categoria": "Posto PMA (Lacre GCP)", "subtitulo": "Fiscalização Fluvial e Informações", "telefone": "(67) 3242-4344", "email": "ambientalpantanal@hotmail.com", "endereco": "MS-184 junto à ponte sobre o Rio Miranda", "info": "Base de apoio fluvial no coração do Pantanal. Acesso ao Rio Miranda e Rio Vermelho.", "fonte": "Cartilha PMA 2023 / Ortofoto Satélite", "tipo": "PMA", "possui_rampa": 1, "telefone_emergencia": "(67) 3242-4344", "servico": "Fiscalização Fluvial e Informações", "id_infra": 502 }, "geometry": { "type": "Point", "coordinates": [ -57.0375, -19.57836 ] } },
{ "type": "Feature", "properties": { "nome": "Rampa Pública do Passo do Lontra", "categoria": "Rampa Náutica / Porto", "subtitulo": "Rampa Fluvial - Estrada Parque Pantanal", "telefone": null, "email": null, "endereco": "MS-184 junto à ponte de madeira sobre o Rio Miranda", "info": "Ponto tradicional de descida de barcos no Passo do Lontra. Acesso direto ao Rio Miranda e encontro com o Rio Vermelho.", "fonte": "OpenStreetMap / Vistoria Satélite", "tipo": "Rampa", "possui_rampa": 1, "telefone_emergencia": null, "servico": "Rampa Fluvial - Estrada Parque Pantanal", "id_infra": 503 }, "geometry": { "type": "Point", "coordinates": [ -57.03745, -19.5783 ] } },
{ "type": "Feature", "properties": { "nome": "Porto Morrinho (Ponte sobre o Rio Paraguai)", "categoria": "Rampa Náutica / Porto", "subtitulo": "Acesso Náutico e Apoio - Rio Paraguai / BR-262", "telefone": null, "email": null, "endereco": "BR-262 junto à Ponte sobre o Rio Paraguai, Corumbá - MS", "info": "Ponto de apoio náutico, combustível e descida de barcos na margem do Rio Paraguai junto à ponte da BR-262.", "fonte": "Ortofoto Satélite / Travessia BR-262", "tipo": "Rampa", "possui_rampa": 1, "telefone_emergencia": null, "servico": "Acesso Náutico e Apoio - Rio Paraguai / BR-262", "id_infra": 504 }, "geometry": { "type": "Point", "coordinates": [ -57.42258, -19.51662 ] } },
{ "type": "Feature", "properties": { "nome": "Ponte Velha de Miranda (Marco de Defeso)", "categoria": "Marco Normativo", "subtitulo": "Divisor de Período de Piracema (Defeso Prolongado)", "telefone": null, "email": null, "endereco": "Rio Miranda, acesso urbano para Bodoquena (MS-339), Miranda - MS", "info": "MARCO LEGAL: Acima (a montante) desta ponte, a proibição de pesca permanece por período mais longo no Rio Miranda e afluentes (Cartilha do Pescador 2023, pág. 11).", "fonte": "Cartilha PMA 2023, pág. 11 / IMASUL / Decreto Estadual", "tipo": "Marco Normativo", "possui_rampa": 0, "telefone_emergencia": null, "servico": "Divisor de Período de Piracema (Defeso Prolongado)", "id_infra": 505 }, "geometry": { "type": "Point", "coordinates": [ -56.39972, -20.24111 ] } },
{ "type": "Feature", "properties": { "nome": "Porto Geral e Rampa Municipal de Miranda", "categoria": "Rampa Náutica / Porto", "subtitulo": "Rampa Pública de Concreto - Rio Miranda", "telefone": null, "email": null, "endereco": "Margem Urbana do Rio Miranda, Miranda - MS", "info": "Rampa pública para descida de barcos no Rio Miranda. Livre acesso para embarque e desembarque.", "fonte": "OpenStreetMap / Ortofoto Satélite", "tipo": "Rampa", "possui_rampa": 1, "telefone_emergencia": null, "servico": "Rampa Pública de Concreto - Rio Miranda", "id_infra": 506 }, "geometry": { "type": "Point", "coordinates": [ -56.39814, -20.24756 ] } },
{ "type": "Feature", "properties": { "nome": "Pelotão da Polícia Militar Ambiental de Miranda", "categoria": "Posto PMA (Lacre GCP)", "subtitulo": "Fiscalização, Lacre de Pescado e Emissão de GCP", "telefone": "(67) 3242-4344", "email": "ambientalpantanal@hotmail.com", "endereco": "BR-262, km 560, Miranda - MS", "info": "Posto oficial para emissão da Guia de Controle de Pescado (GCP) e lacre antes de transitar em rodovias.", "fonte": "Cartilha do Pescador 2023, pág. 23 / SEJUSP-MS", "tipo": "PMA", "possui_rampa": 0, "telefone_emergencia": "(67) 3242-4344", "servico": "Fiscalização, Lacre de Pescado e Emissão de GCP", "id_infra": 507 }, "geometry": { "type": "Point", "coordinates": [ -56.395, -20.246 ] } },
{ "type": "Feature", "properties": { "nome": "Ponte Velha de Aquidauana / Anastácio (Marco de Defeso)", "categoria": "Marco Normativo", "subtitulo": "Divisor de Período de Piracema (Defeso Prolongado)", "telefone": null, "email": null, "endereco": "Ponte Roldão de Oliveira sobre o Rio Aquidauana (liga Aquidauana a Anastácio)", "info": "MARCO LEGAL: Acima (a montante) desta ponte, a proibição de pesca permanece por período mais longo no Rio Aquidauana e afluentes (Cartilha do Pescador 2023, pág. 11).", "fonte": "Cartilha PMA 2023, pág. 11 / Patrimônio Histórico MS", "tipo": "Marco Normativo", "possui_rampa": 0, "telefone_emergencia": null, "servico": "Divisor de Período de Piracema (Defeso Prolongado)", "id_infra": 508 }, "geometry": { "type": "Point", "coordinates": [ -55.80167, -20.47833 ] } },
{ "type": "Feature", "properties": { "nome": "Pelotão da Polícia Militar Ambiental de Aquidauana", "categoria": "Posto PMA (Lacre GCP)", "subtitulo": "Fiscalização, Lacre de Pescado e Emissão de GCP", "telefone": "(67) 3904-2070", "email": "2cia15bpma@gmail.com", "endereco": "BR-262, Aquidauana - MS", "info": "Posto de atendimento aos pescadores da Bacia do Rio Aquidauana.", "fonte": "Cartilha do Pescador 2023, pág. 22", "tipo": "PMA", "possui_rampa": 0, "telefone_emergencia": "(67) 3904-2070", "servico": "Fiscalização, Lacre de Pescado e Emissão de GCP", "id_infra": 509 }, "geometry": { "type": "Point", "coordinates": [ -55.787, -20.471 ] } },
{ "type": "Feature", "properties": { "nome": "Grupo PMA - BR-262 km 482 (Anastácio)", "categoria": "Posto PMA (Lacre GCP)", "subtitulo": "Posto de Fiscalização Rodoviária", "telefone": "(67) 3904-2070", "email": "ppma_aquidauana@yahoo.com.br", "endereco": "BR-262, km 482, Anastácio - MS", "info": "Posto de vistoria rodoviária no entroncamento Anastácio/Aquidauana.", "fonte": "Cartilha do Pescador 2023, pág. 22", "tipo": "PMA", "possui_rampa": 0, "telefone_emergencia": "(67) 3904-2070", "servico": "Posto de Fiscalização Rodoviária", "id_infra": 510 }, "geometry": { "type": "Point", "coordinates": [ -55.808, -20.485 ] } },
{ "type": "Feature", "properties": { "nome": "Porto Geral de Corumbá", "categoria": "Rampa Náutica / Porto", "subtitulo": "Porto Fluvial Histórico e Rampa - Rio Paraguai", "telefone": null, "email": null, "endereco": "Rua Manoel Cavassa, Orla do Rio Paraguai, Corumbá - MS", "info": "Principal atracadouro de barcos-hotel, pesca esportiva e rampa pública no Rio Paraguai.", "fonte": "OpenStreetMap / Ortofoto Satélite", "tipo": "Rampa", "possui_rampa": 1, "telefone_emergencia": null, "servico": "Porto Fluvial Histórico e Rampa - Rio Paraguai", "id_infra": 511 }, "geometry": { "type": "Point", "coordinates": [ -57.65388, -18.99657 ] } },
{ "type": "Feature", "properties": { "nome": "1ª Companhia da PMA de Corumbá", "categoria": "Posto PMA (Lacre GCP)", "subtitulo": "Sede Regional Pantanal / Porto Geral", "telefone": "(67) 3907-5461", "email": "pma_ms@yahoo.com.br", "endereco": "Av. General Rondon, Centro, Corumbá - MS", "info": "Base principal de fiscalização no Rio Paraguai e Pantanal.", "fonte": "Cartilha do Pescador 2023, pág. 22", "tipo": "PMA", "possui_rampa": 0, "telefone_emergencia": "(67) 3907-5461", "servico": "Sede Regional Pantanal / Porto Geral", "id_infra": 512 }, "geometry": { "type": "Point", "coordinates": [ -57.653, -18.9985 ] } },
{ "type": "Feature", "properties": { "nome": "Rampa e Balneário de Piraputanga", "categoria": "Rampa Náutica / Porto", "subtitulo": "Acesso Fluvial ao Rio Aquidauana", "telefone": null, "email": null, "endereco": "Distrito de Piraputanga, Aquidauana - MS", "info": "Ponto de acesso ao Rio Aquidauana para pesca e embarque na Estrada Parque de Piraputanga.", "fonte": "OpenStreetMap / Ortofoto Satélite", "tipo": "Rampa", "possui_rampa": 1, "telefone_emergencia": null, "servico": "Acesso Fluvial ao Rio Aquidauana", "id_infra": 513 }, "geometry": { "type": "Point", "coordinates": [ -55.50688, -20.3999 ] } },
{ "type": "Feature", "properties": { "nome": "Rampa de Camisão", "categoria": "Rampa Náutica / Porto", "subtitulo": "Acesso Náutico ao Rio Aquidauana", "telefone": null, "email": null, "endereco": "Distrito de Camisão, Aquidauana - MS", "info": "Rampa de acesso ao Rio Aquidauana próxima às pousadas e pesqueiros de Camisão.", "fonte": "OpenStreetMap / Ortofoto Satélite", "tipo": "Rampa", "possui_rampa": 1, "telefone_emergencia": null, "servico": "Acesso Náutico ao Rio Aquidauana", "id_infra": 514 }, "geometry": { "type": "Point", "coordinates": [ -55.63503, -20.43475 ] } },
{ "type": "Feature", "properties": { "nome": "4ª Companhia da PMA de Bonito", "categoria": "Posto PMA (Lacre GCP)", "subtitulo": "Fiscalização e Controle Ambiental", "telefone": "(67) 3255-1247", "email": "bonito4ciapma@hotmail.com", "endereco": "MS-178, Bonito - MS", "info": "Atendimento e fiscalização dos rios cênicos da Serra da Bodoquena.", "fonte": "Cartilha do Pescador 2023, pág. 22", "tipo": "PMA", "possui_rampa": 0, "telefone_emergencia": "(67) 3255-1247", "servico": "Fiscalização e Controle Ambiental", "id_infra": 515 }, "geometry": { "type": "Point", "coordinates": [ -56.49022, -21.12648 ] } },
{ "type": "Feature", "properties": { "nome": "Grupo PMA - Km 21 (Bonito)", "categoria": "Posto PMA (Lacre GCP)", "subtitulo": "Posto de Fiscalização Rodoviária e Rios Cênicos", "telefone": "(67) 3255-4961", "email": "gpmakm21bonito@yahoo.com.br", "endereco": "Rodovia Bonito-Bodoquena (MS-178), km 21", "info": "Posto de controle para fiscalização dos Rios Formoso, Peixe e Salobra.", "fonte": "Cartilha do Pescador 2023, pág. 23", "tipo": "PMA", "possui_rampa": 0, "telefone_emergencia": "(67) 3255-4961", "servico": "Posto de Fiscalização Rodoviária e Rios Cênicos", "id_infra": 516 }, "geometry": { "type": "Point", "coordinates": [ -56.545, -21.042 ] } },
{ "type": "Feature", "properties": { "nome": "Pelotão da PMA de Jardim", "categoria": "Posto PMA (Lacre GCP)", "subtitulo": "Fiscalização e Atendimento", "telefone": "(67) 3251-2043", "email": "pmajardim@hotmail.com", "endereco": "Av. Duque de Caxias, Jardim - MS", "info": "Posto de controle para rios da bacia do Miranda e Rio da Prata.", "fonte": "Cartilha do Pescador 2023, pág. 23", "tipo": "PMA", "possui_rampa": 0, "telefone_emergencia": "(67) 3251-2043", "servico": "Fiscalização e Atendimento", "id_infra": 517 }, "geometry": { "type": "Point", "coordinates": [ -56.143, -21.48 ] } },
{ "type": "Feature", "properties": { "nome": "Pelotão da PMA de Porto Murtinho", "categoria": "Posto PMA (Lacre GCP)", "subtitulo": "Fiscalização Calha do Rio Paraguai e Rio Apa", "telefone": "(67) 3287-1360", "email": "pmapmurtinho@yahoo.com.br", "endereco": "Rua 13 de Maio, Porto Murtinho - MS", "info": "Controle de pesca transfronteiriça no Rio Paraguai e Rio Apa.", "fonte": "Cartilha do Pescador 2023, pág. 23", "tipo": "PMA", "possui_rampa": 0, "telefone_emergencia": "(67) 3287-1360", "servico": "Fiscalização Calha do Rio Paraguai e Rio Apa", "id_infra": 518 }, "geometry": { "type": "Point", "coordinates": [ -57.88359, -21.69808 ] } },
{ "type": "Feature", "properties": { "nome": "Posto PMA de Rio Negro", "categoria": "Posto PMA (Lacre GCP)", "subtitulo": "Fiscalização da Bacia do Rio Negro", "telefone": "(67) 3357-1500", "email": "pmarionegroms@gmail.com", "endereco": "Rio Negro - MS", "info": "Posto de apoio à bacia e trecho de Pesque e Solte do Rio Negro.", "fonte": "Cartilha do Pescador 2023, pág. 23", "tipo": "PMA", "possui_rampa": 0, "telefone_emergencia": "(67) 3357-1500", "servico": "Fiscalização da Bacia do Rio Negro", "id_infra": 519 }, "geometry": { "type": "Point", "coordinates": [ -54.985, -19.445 ] } },
{ "type": "Feature", "properties": { "nome": "Corpo de Bombeiros Militar de Miranda", "categoria": "Resgate e Emergência", "subtitulo": "Emergência 193 e Resgate Fluvial", "telefone": "193 / (67) 3242-1200", "email": null, "endereco": "Rua Barão do Rio Branco, Miranda - MS", "info": "Equipe de resgate e socorro de acidentes na BR-262 e operações fluviais na bacia.", "fonte": "Corpo de Bombeiros Militar MS", "tipo": "Bombeiros", "possui_rampa": 0, "telefone_emergencia": "193 / (67) 3242-1200", "servico": "Emergência 193 e Resgate Fluvial", "id_infra": 520 }, "geometry": { "type": "Point", "coordinates": [ -56.377, -20.243 ] } },
{ "type": "Feature", "properties": { "nome": "Corpo de Bombeiros Militar de Aquidauana", "categoria": "Resgate e Emergência", "subtitulo": "Emergência 193 e Busca Fluvial", "telefone": "193 / (67) 3241-2100", "email": null, "endereco": "Rua Pandiá Calógeras, Aquidauana - MS", "info": "Atendimento de emergência, socorro náutico e busca e salvamento.", "fonte": "Corpo de Bombeiros Militar MS", "tipo": "Bombeiros", "possui_rampa": 0, "telefone_emergencia": "193 / (67) 3241-2100", "servico": "Emergência 193 e Busca Fluvial", "id_infra": 521 }, "geometry": { "type": "Point", "coordinates": [ -55.79, -20.468 ] } },
{ "type": "Feature", "properties": { "nome": "Corpo de Bombeiros Militar de Corumbá (3º GB)", "categoria": "Resgate e Emergência", "subtitulo": "Emergência 193 - Batalhão Pantanal", "telefone": "193 / (67) 3231-2100", "email": null, "endereco": "Av. Rio Branco, Corumbá - MS", "info": "Batalhão de salvamento aquático e terrestre no Pantanal de Corumbá.", "fonte": "Corpo de Bombeiros Militar MS", "tipo": "Bombeiros", "possui_rampa": 0, "telefone_emergencia": "193 / (67) 3231-2100", "servico": "Emergência 193 - Batalhão Pantanal", "id_infra": 522 }, "geometry": { "type": "Point", "coordinates": [ -57.65, -19.01 ] } },
{ "type": "Feature", "properties": { "nome": "Hospital Municipal Renato Albuquerque Filho (Miranda)", "categoria": "Resgate e Emergência", "subtitulo": "Pronto Atendimento Médico 24h", "telefone": "(67) 3242-1222", "email": null, "endereco": "Rua Elias Rezek, Centro, Miranda - MS", "info": "Pronto atendimento hospitalar 24h de referência para a bacia do Miranda.", "fonte": "Cadastro Nacional de Estabelecimentos de Saúde (CNES)", "tipo": "Hospital", "possui_rampa": 0, "telefone_emergencia": "(67) 3242-1222", "servico": "Pronto Atendimento Médico 24h", "id_infra": 523 }, "geometry": { "type": "Point", "coordinates": [ -56.379, -20.239 ] } },
{ "type": "Feature", "properties": { "nome": "Hospital Regional Dr. Estácio Muniz (Aquidauana)", "categoria": "Resgate e Emergência", "subtitulo": "Pronto Socorro Regional 24h", "telefone": "(67) 3904-2100", "email": null, "endereco": "Rua Teodoro Rondon, Centro, Aquidauana - MS", "info": "Hospital regional de alta e média complexidade.", "fonte": "Cadastro Nacional de Estabelecimentos de Saúde (CNES)", "tipo": "Hospital", "possui_rampa": 0, "telefone_emergencia": "(67) 3904-2100", "servico": "Pronto Socorro Regional 24h", "id_infra": 524 }, "geometry": { "type": "Point", "coordinates": [ -55.792, -20.465 ] } }
]
}
